{"type": "FeatureCollection", "features": [{"type": "Feature", "geometry": {"type": "LineString", "coordinates": [[101.604645, 3.0653133], [101.6030618, 3.0652136], [101.601544, 3.0652241], [101.6013916, 3.0652252]]}, "properties": {"osm_way_id": "210994197", "osm_tags": {"bridge": "yes", "covered": "yes", "highway": "footway", "layer": "1", "name": "Canopy Walk", "name:en": "Canopy Walk", "stroller": "yes", "wheelchair": "yes"}, "length_m": 361.6, "covered": "yes", "coverage_source": "osm_existing", "coverage_confidence": "high"}}, {"type": "Feature", "geometry": {"type": "LineString", "coordinates": [[101.6054816, 3.0662042], [101.6058177, 3.0664781], [101.6056906, 3.0666336], [101.6053545, 3.0663598], [101.6054816, 3.0662042]]}, "properties": {"osm_way_id": "210994209", "osm_tags": {"covered": "no", "leisure": "swimming_pool", "name": "Sun-U Residence Swimming Pool", "name:en": "Sun-U Residence Swimming Pool", "sport": "swimming"}, "length_m": 141.0, "covered": "no", "coverage_source": "osm_existing", "coverage_confidence": "high"}}, {"type": "Feature", "geometry": {"type": "LineString", "coordinates": [[101.6096707, 3.0679055], [101.6096412, 3.0679136], [101.6096171, 3.0678948], [101.6095956, 3.0678734], [101.6095612, 3.0678594], [101.60955, 3.0678305], [101.6095688, 3.0678037], [101.6095983, 3.0677984], [101.6096198, 3.0678198], [101.6096443, 3.0678487], [101.6096681, 3.067868], [101.6096815, 3.0678814], [101.6096707, 3.0679055]]}, "properties": {"osm_way_id": "221197311", "osm_tags": {"covered": "no", "leisure": "swimming_pool", "sport": "swimming"}, "length_m": 40.7, "covered": "no", "coverage_source": "osm_existing", "coverage_confidence": "high"}}, {"type": "Feature", "geometry": {"type": "LineString", "coordinates": [[101.6098478, 3.0678948], [101.6098773, 3.0679109], [101.609888, 3.0679377], [101.6098665, 3.0679591], [101.6098531, 3.0679859], [101.6098531, 3.0681251], [101.6097458, 3.0681734], [101.609719, 3.068168], [101.6096872, 3.0681701], [101.6096627, 3.0681948], [101.6096359, 3.0682082], [101.6096121, 3.0682023], [101.6095907, 3.0681594], [101.6096282, 3.0681273], [101.6096278, 3.0679885], [101.6097324, 3.067935], [101.6097592, 3.067943], [101.6097838, 3.0679344], [101.6098048, 3.0679189], [101.6098183, 3.0679028], [101.6098478, 3.0678948]]}, "properties": {"osm_way_id": "221197312", "osm_tags": {"covered": "no", "leisure": "swimming_pool", "sport": "swimming"}, "length_m": 112.6, "covered": "no", "coverage_source": "osm_existing", "coverage_confidence": "high"}}, {"type": "Feature", "geometry": {"type": "LineString", "coordinates": [[101.6095956, 3.0679591], [101.6096144, 3.067951], [101.6096171, 3.0679323], [101.6096037, 3.0679136], [101.6095829, 3.067901], [101.6095585, 3.0679103], [101.6095558, 3.0679371], [101.6095692, 3.0679585], [101.6095956, 3.0679591]]}, "properties": {"osm_way_id": "221197315", "osm_tags": {"covered": "no", "leisure": "swimming_pool", "sport": "swimming"}, "length_m": 21.3, "covered": "no", "coverage_source": "osm_existing", "coverage_confidence": "high"}}, {"type": "Feature", "geometry": {"type": "LineString", "coordinates": [[101.6036117, 3.0731321], [101.6035096, 3.0731174]]}, "properties": {"osm_way_id": "263461643", "osm_tags": {"covered": "yes", "highway": "steps"}, "length_m": 11.5, "covered": "yes", "coverage_source": "osm_existing", "coverage_confidence": "high"}}, {"type": "Feature", "geometry": {"type": "LineString", "coordinates": [[101.6005574, 3.0666199], [101.600554, 3.0655827], [101.6007685, 3.0655827], [101.6013857, 3.0655761], [101.6015321, 3.0655771], [101.6015373, 3.0666167], [101.6005574, 3.0666199]]}, "properties": {"osm_way_id": "428126739", "osm_tags": {"access": "yes", "addr:city": "Petaling Jaya", "addr:place": "Bandar Sunway", "amenity": "parking", "building": "yes", "building:levels": "4", "covered": "yes", "fee": "yes", "landuse": "depot", "name": "Kompleks BRT Sunway", "name:en": "BRT Sunway Complex", "name:ms": "Kompleks BRT Sunway", "name:zh": "\u53cc\u5a01\u5feb\u6377\u5df4\u58eb\u4e2d\u5fc3", "name:zh-Hans": "\u53cc\u5a01\u5feb\u6377\u5df4\u58eb\u4e2d\u5fc3", "name:zh-Hant": "\u96d9\u5a01\u5feb\u901f\u5df4\u58eb\u4e2d\u5fc3", "park_ride": "yes", "parking": "multi-storey", "wheelchair": "yes"}, "length_m": 448.3, "covered": "yes", "coverage_source": "osm_existing", "coverage_confidence": "high"}}, {"type": "Feature", "geometry": {"type": "LineString", "coordinates": [[101.6020744, 3.0726197], [101.6020764, 3.0724911], [101.6020792, 3.0720848], [101.6023585, 3.0720785]]}, "properties": {"osm_way_id": "603234065", "osm_tags": {"covered": "yes", "highway": "service"}, "length_m": 90.5, "covered": "yes", "coverage_source": "osm_existing", "coverage_confidence": "high"}}, {"type": "Feature", "geometry": {"type": "LineString", "coordinates": [[101.6090739, 3.0718352], [101.6088811, 3.0718354]]}, "properties": {"osm_way_id": "603814878", "osm_tags": {"bridge": "yes", "covered": "yes", "highway": "footway", "layer": "1", "stroller": "yes", "wheelchair": "no"}, "length_m": 21.4, "covered": "yes", "coverage_source": "osm_existing", "coverage_confidence": "high"}}, {"type": "Feature", "geometry": {"type": "LineString", "coordinates": [[101.6088811, 3.0718354], [101.6085235, 3.0718358]]}, "properties": {"osm_way_id": "603814879", "osm_tags": {"handrail": "yes", "highway": "steps", "incline": "down", "indoor": "yes"}, "length_m": 39.7, "covered": "yes", "coverage_source": "hermes_review", "coverage_confidence": "high", "coverage_review_id": "G027"}}, {"type": "Feature", "geometry": {"type": "LineString", "coordinates": [[101.6105938, 3.0705864], [101.6099729, 3.0705824], [101.609889, 3.0706102], [101.6098129, 3.070655], [101.6097502, 3.0707223], [101.6096953, 3.0707941], [101.6091267, 3.0716887], [101.6091029, 3.0717372], [101.6090843, 3.071783], [101.6090739, 3.0718352], [101.6090706, 3.0718831], [101.6090652, 3.0729555]]}, "properties": {"osm_way_id": "603814881", "osm_tags": {"bridge": "yes", "covered": "yes", "highway": "footway", "layer": "1", "stroller": "yes", "wheelchair": "yes"}, "length_m": 368.7, "covered": "yes", "coverage_source": "osm_existing", "coverage_confidence": "high"}}, {"type": "Feature", "geometry": {"type": "LineString", "coordinates": [[101.6090652, 3.0729555], [101.6088152, 3.07296]]}, "properties": {"osm_way_id": "603815893", "osm_tags": {"bridge": "yes", "covered": "yes", "highway": "footway", "layer": "1", "stroller": "yes", "surface": "paved", "wheelchair": "yes"}, "length_m": 27.8, "covered": "yes", "coverage_source": "osm_existing", "coverage_confidence": "high"}}, {"type": "Feature", "geometry": {"type": "LineString", "coordinates": [[101.6088152, 3.07296], [101.608814, 3.0729017]]}, "properties": {"osm_way_id": "603815894", "osm_tags": {"conveying": "yes", "handrail": "yes", "highway": "steps", "incline": "up", "indoor": "yes"}, "length_m": 6.5, "covered": "yes", "coverage_source": "hermes_review", "coverage_confidence": "high", "coverage_review_id": "G028"}}, {"type": "Feature", "geometry": {"type": "LineString", "coordinates": [[101.6091655, 3.0644289], [101.6091922, 3.0648425], [101.6086683, 3.0649206], [101.6086624, 3.0652054]]}, "properties": {"osm_way_id": "764530865", "osm_tags": {"bridge": "yes", "highway": "footway", "layer": "1", "tunnel": "building_passage"}, "length_m": 136.6, "covered": "yes", "coverage_source": "hermes_review", "coverage_confidence": "high", "coverage_review_id": "G033"}}, {"type": "Feature", "geometry": {"type": "LineString", "coordinates": [[101.609137, 3.0658723], [101.6091806, 3.0658923], [101.6094489, 3.0658891]]}, "properties": {"osm_way_id": "919064543", "osm_tags": {"covered": "yes", "highway": "service", "oneway": "yes"}, "length_m": 35.1, "covered": "yes", "coverage_source": "osm_existing", "coverage_confidence": "high"}}, {"type": "Feature", "geometry": {"type": "LineString", "coordinates": [[101.609889, 3.0706102], [101.6096952, 3.0703607]]}, "properties": {"osm_way_id": "1073608495", "osm_tags": {"bridge": "yes", "covered": "yes", "highway": "footway", "layer": "1", "stroller": "yes", "wheelchair": "yes"}, "length_m": 35.1, "covered": "yes", "coverage_source": "osm_existing", "coverage_confidence": "high"}}, {"type": "Feature", "geometry": {"type": "LineString", "coordinates": [[101.604529, 3.0676723], [101.6047975, 3.0676197]]}, "properties": {"osm_way_id": "1120344214", "osm_tags": {"bridge": "yes", "covered": "yes", "highway": "footway", "layer": "1"}, "length_m": 30.4, "covered": "yes", "coverage_source": "osm_existing", "coverage_confidence": "high"}}, {"type": "Feature", "geometry": {"type": "LineString", "coordinates": [[101.6045116, 3.0670249], [101.6042777, 3.0670268]]}, "properties": {"osm_way_id": "1120344215", "osm_tags": {"bridge": "yes", "covered": "yes", "foot": "private", "highway": "footway", "layer": "1", "surface": "metal"}, "length_m": 26.0, "covered": "yes", "coverage_source": "osm_existing", "coverage_confidence": "high"}}, {"type": "Feature", "geometry": {"type": "LineString", "coordinates": [[101.604499, 3.0660483], [101.604537, 3.0660512]]}, "properties": {"osm_way_id": "1120344216", "osm_tags": {"access": "no", "bicycle": "no", "bridge": "yes", "covered": "yes", "foot": "designated", "highway": "footway", "horse": "no", "layer": "1", "name": "Canopy Walk exit to sun u"}, "length_m": 4.2, "covered": "yes", "coverage_source": "osm_existing", "coverage_confidence": "high"}}, {"type": "Feature", "geometry": {"type": "LineString", "coordinates": [[101.6091189, 3.0637765], [101.6091117, 3.0634324]]}, "properties": {"osm_way_id": "1232335177", "osm_tags": {"highway": "footway", "indoor": "yes"}, "length_m": 38.3, "covered": "yes", "coverage_source": "hermes_review", "coverage_confidence": "high", "coverage_review_id": "G058"}}, {"type": "Feature", "geometry": {"type": "LineString", "coordinates": [[101.6091655, 3.0644289], [101.6091125, 3.0640844]]}, "properties": {"osm_way_id": "1232335179", "osm_tags": {"bridge": "yes", "highway": "footway", "indoor": "yes", "layer": "1"}, "length_m": 38.8, "covered": "yes", "coverage_source": "hermes_review", "coverage_confidence": "high", "coverage_review_id": "G060"}}, {"type": "Feature", "geometry": {"type": "LineString", "coordinates": [[101.6033823, 3.0737502], [101.6034815, 3.0737655]]}, "properties": {"osm_way_id": "1234675857", "osm_tags": {"covered": "yes", "handrail": "yes", "highway": "steps", "incline": "down"}, "length_m": 11.1, "covered": "yes", "coverage_source": "osm_existing", "coverage_confidence": "high"}}, {"type": "Feature", "geometry": {"type": "LineString", "coordinates": [[101.6035096, 3.0731174], [101.6033823, 3.0737502]]}, "properties": {"osm_way_id": "1234675858", "osm_tags": {"bridge": "yes", "covered": "yes", "highway": "footway", "layer": "1"}, "length_m": 71.8, "covered": "yes", "coverage_source": "osm_existing", "coverage_confidence": "high"}}, {"type": "Feature", "geometry": {"type": "LineString", "coordinates": [[101.5985056, 3.0727532], [101.5996543, 3.0727273]]}, "properties": {"osm_way_id": "1277836491", "osm_tags": {"covered": "yes", "highway": "footway"}, "length_m": 127.6, "covered": "yes", "coverage_source": "osm_existing", "coverage_confidence": "high"}}, {"type": "Feature", "geometry": {"type": "LineString", "coordinates": [[101.6088152, 3.07296], [101.6087151, 3.0729589], [101.6087121, 3.0730928], [101.6076459, 3.0730746], [101.6075852, 3.0730735], [101.6066568, 3.0730577], [101.6060707, 3.0730476]]}, "properties": {"osm_way_id": "1303647076", "osm_tags": {"highway": "corridor", "indoor": "yes"}, "length_m": 319.3, "covered": "yes", "coverage_source": "hermes_review", "coverage_confidence": "high", "coverage_review_id": "G065"}}, {"type": "Feature", "geometry": {"type": "LineString", "coordinates": [[101.6060707, 3.0730476], [101.6059252, 3.0730476], [101.605484, 3.0730475], [101.6054764, 3.0723818], [101.6054738, 3.0721496], [101.6058854, 3.0721449], [101.606079, 3.0721427]]}, "properties": {"osm_way_id": "1303647077", "osm_tags": {"highway": "corridor", "indoor": "yes"}, "length_m": 232.2, "covered": "yes", "coverage_source": "boundary_inference", "coverage_confidence": "medium", "coverage_review_id": "BOUNDARY-BULK"}}, {"type": "Feature", "geometry": {"type": "LineString", "coordinates": [[101.6060928, 3.0716012], [101.6060925, 3.0716138], [101.6060816, 3.0720421], [101.606079, 3.0721427]]}, "properties": {"osm_way_id": "1303647078", "osm_tags": {"highway": "corridor", "indoor": "yes"}, "length_m": 60.2, "covered": "yes", "coverage_source": "boundary_inference", "coverage_confidence": "medium", "coverage_review_id": "BOUNDARY-BULK"}}, {"type": "Feature", "geometry": {"type": "LineString", "coordinates": [[101.6060816, 3.0720421], [101.6072307, 3.0720477], [101.6072622, 3.0723057], [101.6072713, 3.0723806], [101.6076465, 3.0723686], [101.6078844, 3.0723611], [101.6081471, 3.0723582]]}, "properties": {"osm_way_id": "1303647079", "osm_tags": {"highway": "corridor", "indoor": "yes", "layer": "-1"}, "length_m": 262.2, "covered": "yes", "coverage_source": "hermes_review", "coverage_confidence": "high", "coverage_review_id": "G066"}}, {"type": "Feature", "geometry": {"type": "LineString", "coordinates": [[101.6087151, 3.0729589], [101.6087084, 3.0727545], [101.6081436, 3.072767], [101.607647, 3.072778], [101.6076465, 3.0723686]]}, "properties": {"osm_way_id": "1303647080", "osm_tags": {"highway": "corridor", "indoor": "yes"}, "length_m": 186.1, "covered": "yes", "coverage_source": "hermes_review", "coverage_confidence": "high", "coverage_review_id": "G067"}}, {"type": "Feature", "geometry": {"type": "LineString", "coordinates": [[101.6081471, 3.0723582], [101.6081436, 3.072767]]}, "properties": {"osm_way_id": "1303647081", "osm_tags": {"highway": "corridor", "indoor": "yes"}, "length_m": 45.5, "covered": "yes", "coverage_source": "hermes_review", "coverage_confidence": "high", "coverage_review_id": "G068"}}, {"type": "Feature", "geometry": {"type": "LineString", "coordinates": [[101.607647, 3.072778], [101.6076459, 3.0730746]]}, "properties": {"osm_way_id": "1303647082", "osm_tags": {"highway": "corridor", "indoor": "yes"}, "length_m": 33.0, "covered": "yes", "coverage_source": "hermes_review", "coverage_confidence": "high", "coverage_review_id": "G069"}}, {"type": "Feature", "geometry": {"type": "LineString", "coordinates": [[101.6060707, 3.0730476], [101.6060774, 3.0723193], [101.606079, 3.0721427]]}, "properties": {"osm_way_id": "1303647083", "osm_tags": {"highway": "corridor", "indoor": "yes"}, "length_m": 100.6, "covered": "yes", "coverage_source": "hermes_review", "coverage_confidence": "high", "coverage_review_id": "R002"}}, {"type": "Feature", "geometry": {"type": "LineString", "coordinates": [[101.6075852, 3.0730735], [101.6075806, 3.0732429]]}, "properties": {"osm_way_id": "1303647084", "osm_tags": {"highway": "corridor", "indoor": "yes"}, "length_m": 18.8, "covered": "yes", "coverage_source": "hermes_review", "coverage_confidence": "high", "coverage_review_id": "G070"}}, {"type": "Feature", "geometry": {"type": "LineString", "coordinates": [[101.6075738, 3.0732875], [101.6075806, 3.0732429]]}, "properties": {"osm_way_id": "1303647086", "osm_tags": {"highway": "corridor", "indoor": "yes"}, "length_m": 5.0, "covered": "yes", "coverage_source": "hermes_review", "coverage_confidence": "high", "coverage_review_id": "G072"}}, {"type": "Feature", "geometry": {"type": "LineString", "coordinates": [[101.6066568, 3.0730577], [101.6066528, 3.0733165]]}, "properties": {"osm_way_id": "1303647087", "osm_tags": {"highway": "corridor", "indoor": "yes"}, "length_m": 28.8, "covered": "yes", "coverage_source": "hermes_review", "coverage_confidence": "high", "coverage_review_id": "G073"}}, {"type": "Feature", "geometry": {"type": "LineString", "coordinates": [[101.605924, 3.0733552], [101.6059252, 3.0730476]]}, "properties": {"osm_way_id": "1303647088", "osm_tags": {"highway": "corridor", "indoor": "yes"}, "length_m": 34.2, "covered": "yes", "coverage_source": "hermes_review", "coverage_confidence": "high", "coverage_review_id": "G074"}}, {"type": "Feature", "geometry": {"type": "LineString", "coordinates": [[101.6072622, 3.0723057], [101.6060774, 3.0723193]]}, "properties": {"osm_way_id": "1303647091", "osm_tags": {"highway": "corridor", "indoor": "yes"}, "length_m": 131.6, "covered": "yes", "coverage_source": "hermes_review", "coverage_confidence": "high", "coverage_review_id": "G077"}}, {"type": "Feature", "geometry": {"type": "LineString", "coordinates": [[101.605406, 3.0714307], [101.6054176, 3.0713699]]}, "properties": {"osm_way_id": "1303647093", "osm_tags": {"highway": "corridor", "indoor": "yes"}, "length_m": 6.9, "covered": "yes", "coverage_source": "hermes_review", "coverage_confidence": "high", "coverage_review_id": "G079"}}, {"type": "Feature", "geometry": {"type": "LineString", "coordinates": [[101.6054671, 3.0710674], [101.6055612, 3.0709866]]}, "properties": {"osm_way_id": "1303647096", "osm_tags": {"highway": "corridor", "indoor": "yes"}, "length_m": 13.8, "covered": "yes", "coverage_source": "hermes_review", "coverage_confidence": "high", "coverage_review_id": "G082"}}, {"type": "Feature", "geometry": {"type": "LineString", "coordinates": [[101.6057337, 3.0706424], [101.6056182, 3.0707181]]}, "properties": {"osm_way_id": "1303647098", "osm_tags": {"highway": "corridor", "indoor": "yes"}, "length_m": 15.3, "covered": "yes", "coverage_source": "hermes_review", "coverage_confidence": "high", "coverage_review_id": "G084"}}, {"type": "Feature", "geometry": {"type": "LineString", "coordinates": [[101.6052944, 3.0715079], [101.6053012, 3.0714344], [101.605406, 3.0714307]]}, "properties": {"osm_way_id": "1303647101", "osm_tags": {"highway": "corridor", "indoor": "yes"}, "length_m": 19.9, "covered": "yes", "coverage_source": "hermes_review", "coverage_confidence": "high", "coverage_review_id": "G087"}}, {"type": "Feature", "geometry": {"type": "LineString", "coordinates": [[101.6060911, 3.0704282], [101.6062009, 3.0707081]]}, "properties": {"osm_way_id": "1303647102", "osm_tags": {"highway": "corridor", "indoor": "yes"}, "length_m": 33.4, "covered": "yes", "coverage_source": "hermes_review", "coverage_confidence": "high", "coverage_review_id": "G088"}}, {"type": "Feature", "geometry": {"type": "LineString", "coordinates": [[101.6064565, 3.0707935], [101.6066893, 3.070805]]}, "properties": {"osm_way_id": "1303647104", "osm_tags": {"highway": "corridor", "indoor": "yes"}, "length_m": 25.9, "covered": "yes", "coverage_source": "hermes_review", "coverage_confidence": "high", "coverage_review_id": "G090"}}, {"type": "Feature", "geometry": {"type": "LineString", "coordinates": [[101.6072974, 3.0707967], [101.6074475, 3.0708104]]}, "properties": {"osm_way_id": "1303647106", "osm_tags": {"highway": "corridor", "indoor": "yes"}, "length_m": 16.7, "covered": "yes", "coverage_source": "hermes_review", "coverage_confidence": "high", "coverage_review_id": "G092"}}, {"type": "Feature", "geometry": {"type": "LineString", "coordinates": [[101.6060518, 3.0703519], [101.6060911, 3.0704282]]}, "properties": {"osm_way_id": "1303647110", "osm_tags": {"highway": "corridor", "indoor": "yes"}, "length_m": 9.5, "covered": "yes", "coverage_source": "hermes_review", "coverage_confidence": "high", "coverage_review_id": "G096"}}, {"type": "Feature", "geometry": {"type": "LineString", "coordinates": [[101.6058854, 3.0721449], [101.6058902, 3.0718576], [101.6056866, 3.0717853]]}, "properties": {"osm_way_id": "1303809993", "osm_tags": {"highway": "corridor", "indoor": "yes"}, "length_m": 55.9, "covered": "yes", "coverage_source": "hermes_review", "coverage_confidence": "high", "coverage_review_id": "G097"}}, {"type": "Feature", "geometry": {"type": "LineString", "coordinates": [[101.605406, 3.0714307], [101.6054523, 3.0714394], [101.605486, 3.0714497], [101.6055196, 3.0714702], [101.6055551, 3.0715], [101.6055831, 3.0715327], [101.6056289, 3.071515], [101.6056709, 3.0715075], [101.6057, 3.0715225], [101.6057161, 3.0715528], [101.6057417, 3.0716036]]}, "properties": {"osm_way_id": "1303809995", "osm_tags": {"highway": "corridor", "indoor": "yes"}, "length_m": 47.4, "covered": "yes", "coverage_source": "hermes_review", "coverage_confidence": "high", "coverage_review_id": "G099"}}, {"type": "Feature", "geometry": {"type": "LineString", "coordinates": [[101.6057417, 3.0716036], [101.6057548, 3.0716243], [101.6057651, 3.0716309]]}, "properties": {"osm_way_id": "1303809996", "osm_tags": {"highway": "corridor", "indoor": "yes"}, "length_m": 4.1, "covered": "yes", "coverage_source": "hermes_review", "coverage_confidence": "high", "coverage_review_id": "G100"}}, {"type": "Feature", "geometry": {"type": "LineString", "coordinates": [[101.6057651, 3.0716309], [101.6058023, 3.071636], [101.6058372, 3.0716308], [101.6058959, 3.0716238], [101.6059507, 3.0716192], [101.6060108, 3.0716147], [101.6060925, 3.0716138]]}, "properties": {"osm_way_id": "1303809997", "osm_tags": {"highway": "corridor", "indoor": "yes"}, "length_m": 36.5, "covered": "yes", "coverage_source": "hermes_review", "coverage_confidence": "high", "coverage_review_id": "G101"}}, {"type": "Feature", "geometry": {"type": "LineString", "coordinates": [[101.6087629, 3.0720743], [101.6086739, 3.0720947], [101.608659, 3.0721595], [101.6086022, 3.0721919], [101.6085387, 3.0722], [101.6084752, 3.0722054], [101.6083941, 3.0722054], [101.6083697, 3.0722095]]}, "properties": {"osm_way_id": "1303810000", "osm_tags": {"highway": "corridor", "indoor": "yes"}, "length_m": 50.7, "covered": "yes", "coverage_source": "hermes_review", "coverage_confidence": "high", "coverage_review_id": "G104"}}, {"type": "Feature", "geometry": {"type": "LineString", "coordinates": [[101.6053226, 3.0723818], [101.6054764, 3.0723818]]}, "properties": {"osm_way_id": "1364063296", "osm_tags": {"highway": "corridor", "indoor": "yes"}, "length_m": 17.1, "covered": "yes", "coverage_source": "hermes_review", "coverage_confidence": "high", "coverage_review_id": "G108"}}, {"type": "Feature", "geometry": {"type": "LineString", "coordinates": [[101.604645, 3.0653133], [101.6046593, 3.0651571]]}, "properties": {"osm_way_id": "1460003879", "osm_tags": {"air_conditioning": "yes", "bridge": "yes", "covered": "yes", "highway": "footway", "layer": "1", "stroller": "yes", "wheelchair": "yes"}, "length_m": 17.4, "covered": "yes", "coverage_source": "osm_existing", "coverage_confidence": "high"}}, {"type": "Feature", "geometry": {"type": "LineString", "coordinates": [[101.6068594, 3.0649294], [101.6069071, 3.0649366]]}, "properties": {"osm_way_id": "1460003881", "osm_tags": {"highway": "footway"}, "length_m": 5.4, "covered": "yes", "coverage_source": "hermes_review", "coverage_confidence": "high", "coverage_review_id": "G111"}}, {"type": "Feature", "geometry": {"type": "LineString", "coordinates": [[101.6069071, 3.0649366], [101.6072667, 3.064924]]}, "properties": {"osm_way_id": "1460003882", "osm_tags": {"bridge": "yes", "highway": "footway", "layer": "1"}, "length_m": 40.0, "covered": "yes", "coverage_source": "hermes_review", "coverage_confidence": "high", "coverage_review_id": "R001"}}, {"type": "Feature", "geometry": {"type": "LineString", "coordinates": [[101.6060848, 3.0715106], [101.6060528, 3.0715074], [101.605967, 3.0714913], [101.6059211, 3.0714731], [101.6058324, 3.0714207], [101.6056878, 3.0714128], [101.6055819, 3.0713972], [101.6054525, 3.0712665], [101.6053265, 3.071141], [101.6052478, 3.071034], [101.6052144, 3.0709904], [101.6051799, 3.0709623], [101.6050511, 3.0708807], [101.6051396, 3.0697198], [101.6051448, 3.0693232], [101.6051473, 3.0691371], [101.60515, 3.0690327], [101.6051166, 3.0689182], [101.6048734, 3.0686062], [101.6047859, 3.0685087]]}, "properties": {"osm_way_id": "1460003883", "osm_tags": {"bridge": "yes", "covered": "yes", "highway": "footway", "layer": "1", "name": "Canopy Walk", "name:en": "Canopy Walk", "stroller": "yes", "wheelchair": "yes"}, "length_m": 418.8, "covered": "yes", "coverage_source": "osm_existing", "coverage_confidence": "high"}}, {"type": "Feature", "geometry": {"type": "LineString", "coordinates": [[101.6046941, 3.0682878], [101.6046939, 3.0682641], [101.6046907, 3.0679465]]}, "properties": {"osm_way_id": "1460003884", "osm_tags": {"covered": "yes", "highway": "footway", "indoor": "yes", "name": "Canopy Walk", "name:en": "Canopy Walk", "stroller": "yes", "wheelchair": "yes"}, "length_m": 38.0, "covered": "yes", "coverage_source": "osm_existing", "coverage_confidence": "high"}}, {"type": "Feature", "geometry": {"type": "LineString", "coordinates": [[101.6047859, 3.0685087], [101.6047357, 3.0684731]]}, "properties": {"osm_way_id": "1460003885", "osm_tags": {"bridge": "yes", "covered": "yes", "highway": "steps", "incline": "up", "layer": "1", "name": "Canopy Walk", "name:en": "Canopy Walk", "stroller": "yes", "wheelchair": "yes"}, "length_m": 6.8, "covered": "yes", "coverage_source": "osm_existing", "coverage_confidence": "high"}}, {"type": "Feature", "geometry": {"type": "LineString", "coordinates": [[101.6047357, 3.0684731], [101.6046967, 3.0684719], [101.6046954, 3.0683563], [101.6046941, 3.0682878]]}, "properties": {"osm_way_id": "1460003886", "osm_tags": {"covered": "yes", "highway": "footway", "name": "Canopy Walk", "name:en": "Canopy Walk", "stroller": "yes", "wheelchair": "yes"}, "length_m": 24.8, "covered": "yes", "coverage_source": "osm_existing", "coverage_confidence": "high"}}, {"type": "Feature", "geometry": {"type": "LineString", "coordinates": [[101.6046907, 3.0679465], [101.6045643, 3.0677322], [101.604529, 3.0676723], [101.6045189, 3.0676552], [101.6045036, 3.0675837], [101.6044953, 3.0675026], [101.6045116, 3.0670249], [101.6045053, 3.0665366], [101.604499, 3.0660483], [101.6045071, 3.0657108], [101.604522, 3.0656462], [101.6045511, 3.0655846], [101.6045845, 3.0655342], [101.6046212, 3.0654923], [101.604635, 3.0654444], [101.604645, 3.0653133]]}, "properties": {"osm_way_id": "1467745041", "osm_tags": {"air_conditioning": "yes", "bridge": "yes", "covered": "yes", "highway": "footway", "layer": "1", "name": "Canopy Walk", "name:en": "Canopy Walk", "stroller": "yes", "wheelchair": "yes"}, "length_m": 302.1, "covered": "yes", "coverage_source": "osm_existing", "coverage_confidence": "high"}}, {"type": "Feature", "geometry": {"type": "LineString", "coordinates": [[101.6046654, 3.0650783], [101.605055, 3.0650936]]}, "properties": {"osm_way_id": "1467745042", "osm_tags": {"highway": "steps"}, "length_m": 43.3, "covered": "yes", "coverage_source": "hermes_review", "coverage_confidence": "high", "coverage_review_id": "G118"}}, {"type": "Feature", "geometry": {"type": "LineString", "coordinates": [[101.605055, 3.0650936], [101.6061508, 3.065095], [101.6068594, 3.0649294]]}, "properties": {"osm_way_id": "1467745043", "osm_tags": {"highway": "footway", "tunnel": "building_passage"}, "length_m": 202.5, "covered": "yes", "coverage_source": "boundary_inference", "coverage_confidence": "medium", "coverage_review_id": "BOUNDARY-BULK"}}, {"type": "Feature", "geometry": {"type": "LineString", "coordinates": [[101.6046593, 3.0651571], [101.6046654, 3.0650783]]}, "properties": {"osm_way_id": "1467745044", "osm_tags": {"highway": "footway", "tunnel": "building_passage"}, "length_m": 8.8, "covered": "yes", "coverage_source": "boundary_inference", "coverage_confidence": "medium", "coverage_review_id": "BOUNDARY-BULK"}}, {"type": "Feature", "geometry": {"type": "LineString", "coordinates": [[101.6072667, 3.064924], [101.6086683, 3.0649206]]}, "properties": {"osm_way_id": "1467785088", "osm_tags": {"highway": "footway", "tunnel": "building_passage"}, "length_m": 155.6, "covered": "yes", "coverage_source": "hermes_review", "coverage_confidence": "high", "coverage_review_id": "TAG-BUILDING_PASSAGE"}}]}