{"type": "FeatureCollection", "features": [{"type": "Feature", "geometry": {"type": "LineString", "coordinates": [[101.6059746, 3.0741126], [101.6060852, 3.0741326], [101.6061442, 3.0736985], [101.6061012, 3.0736621]]}, "properties": {"review_id": "G001", "reason": "Elevated structure (bridge=yes / layer=1) but NO covered tag: elevation alone is not cover. Determine from imagery whether it has a continuous roof (covered linkway) or is an open elevated walkway.", "priority": "high", "batch": false, "osm_way_ids": "151209905"}}, {"type": "Feature", "geometry": {"type": "LineString", "coordinates": [[101.6059746, 3.0741126], [101.6059618, 3.0741931]]}, "properties": {"review_id": "G002", "reason": "No coverage tag and no implicit signal; ground-level footway. Near the demo corridor \u2014 determine from imagery whether any built overhead cover exists (trees/shadows don't count).", "priority": "medium", "batch": false, "osm_way_ids": "151209906"}}, {"type": "Feature", "geometry": {"type": "LineString", "coordinates": [[101.6018153, 3.0618682], [101.601831, 3.0619756], [101.6018684, 3.0620424], [101.6019327, 3.0621281], [101.6021069, 3.0622806], [101.6021446, 3.0623424], [101.6021607, 3.0625138], [101.6021393, 3.0626075], [101.602099, 3.062704], [101.6020452, 3.0627895], [101.6020346, 3.0628513], [101.60204, 3.062945], [101.6020908, 3.0631136], [101.6021069, 3.0634806], [101.6021364, 3.0635636], [101.6022545, 3.0637323], [101.6023216, 3.0639307], [101.6023993, 3.0640993], [101.6024851, 3.0642251], [101.6025897, 3.0643242], [101.6026943, 3.0643885], [101.6028258, 3.0644189], [101.6030593, 3.0644516], [101.6033368, 3.0644808], [101.6037293, 3.0644607], [101.6039069, 3.0644458], [101.604025, 3.0643778], [101.6043843, 3.0641552], [101.6045296, 3.064059], [101.6047168, 3.0639474], [101.6047965, 3.0638748], [101.6048577, 3.0637561], [101.6049313, 3.0636941], [101.6049663, 3.0634325], [101.6050516, 3.0631698], [101.6050628, 3.0631352], [101.6052398, 3.0628512], [101.6053445, 3.062645], [101.6053874, 3.0624951], [101.6053981, 3.0623665], [101.6053845, 3.0619646], [101.6052989, 3.0617397], [101.605087, 3.0613299], [101.6050789, 3.0611719], [101.6050068, 3.0611394], [101.6047922, 3.0611367], [101.6046956, 3.0611608], [101.6046178, 3.0612117]]}, "properties": {"review_id": "G004", "reason": "No coverage tag and no implicit signal; ground-level footway. Near the demo corridor \u2014 determine from imagery whether any built overhead cover exists (trees/shadows don't count).", "priority": "medium", "batch": false, "osm_way_ids": "210983319"}}, {"type": "Feature", "geometry": {"type": "LineString", "coordinates": [[101.5992572, 3.0645521], [101.5993203, 3.064552], [101.5993176, 3.0645895], [101.5997521, 3.0645895], [101.6001466, 3.064583]]}, "properties": {"review_id": "G006", "reason": "No coverage tag and no implicit signal; ground-level footway. determine from imagery whether any built overhead cover exists (trees/shadows don't count).", "priority": "low", "batch": false, "osm_way_ids": "210994261"}}, {"type": "Feature", "geometry": {"type": "LineString", "coordinates": [[101.6056558, 3.0668425], [101.6050599, 3.0670109], [101.6048151, 3.0673613], [101.6047114, 3.0675277]]}, "properties": {"review_id": "G007", "reason": "No coverage tag and no implicit signal; ground-level service. Near the demo corridor \u2014 determine from imagery whether any built overhead cover exists (trees/shadows don't count).", "priority": "high", "batch": false, "osm_way_ids": "210994295"}}, {"type": "Feature", "geometry": {"type": "LineString", "coordinates": [[101.5992574, 3.0645146], [101.5994571, 3.0645145], [101.5996529, 3.0644958], [101.5997253, 3.0644743], [101.5998833, 3.0643995], [101.5999784, 3.0643539]]}, "properties": {"review_id": "G008", "reason": "No coverage tag and no implicit signal; ground-level footway. determine from imagery whether any built overhead cover exists (trees/shadows don't count).", "priority": "low", "batch": false, "osm_way_ids": "210994303"}}, {"type": "Feature", "geometry": {"type": "LineString", "coordinates": [[101.6081852, 3.0685368], [101.6083113, 3.0688586], [101.6073832, 3.0694826], [101.606541, 3.0700692], [101.6057337, 3.0706424]]}, "properties": {"review_id": "G010", "reason": "Elevated structure (bridge=yes / layer=1) but NO covered tag: elevation alone is not cover. Determine from imagery whether it has a continuous roof (covered linkway) or is an open elevated walkway.", "priority": "high", "batch": false, "osm_way_ids": "211071568"}}, {"type": "Feature", "geometry": {"type": "LineString", "coordinates": [[101.6097498, 3.0715413], [101.6098017, 3.0715132]]}, "properties": {"review_id": "G013", "reason": "Elevated structure (bridge=yes / layer=1) but NO covered tag: elevation alone is not cover. Determine from imagery whether it has a continuous roof (covered linkway) or is an open elevated walkway.", "priority": "medium", "batch": false, "osm_way_ids": "221195963"}}, {"type": "Feature", "geometry": {"type": "LineString", "coordinates": [[101.6098109, 3.0717173], [101.6097411, 3.0716505]]}, "properties": {"review_id": "G016", "reason": "Elevated structure (bridge=yes / layer=1) but NO covered tag: elevation alone is not cover. Determine from imagery whether it has a continuous roof (covered linkway) or is an open elevated walkway.", "priority": "medium", "batch": false, "osm_way_ids": "221195969"}}, {"type": "Feature", "geometry": {"type": "LineString", "coordinates": [[101.6095912, 3.0716402], [101.6096319, 3.0716192]]}, "properties": {"review_id": "G017", "reason": "Elevated structure (bridge=yes / layer=1) but NO covered tag: elevation alone is not cover. Determine from imagery whether it has a continuous roof (covered linkway) or is an open elevated walkway.", "priority": "medium", "batch": false, "osm_way_ids": "221195970"}}, {"type": "Feature", "geometry": {"type": "LineString", "coordinates": [[101.6096496, 3.0715615], [101.6096229, 3.0715344]]}, "properties": {"review_id": "G018", "reason": "Elevated structure (bridge=yes / layer=1) but NO covered tag: elevation alone is not cover. Determine from imagery whether it has a continuous roof (covered linkway) or is an open elevated walkway.", "priority": "medium", "batch": false, "osm_way_ids": "221195971"}}, {"type": "Feature", "geometry": {"type": "LineString", "coordinates": [[101.6061012, 3.0736621], [101.6060552, 3.0735561]]}, "properties": {"review_id": "G021", "reason": "No coverage tag and no implicit signal; ground-level steps. Near the demo corridor \u2014 determine from imagery whether any built overhead cover exists (trees/shadows don't count).", "priority": "high", "batch": false, "osm_way_ids": "263461645"}}, {"type": "Feature", "geometry": {"type": "LineString", "coordinates": [[101.6087412, 3.0742604], [101.608624, 3.0742595], [101.6086253, 3.0737944], [101.6085061, 3.0737896]]}, "properties": {"review_id": "G023", "reason": "Elevated structure (bridge=yes / layer=1) but NO covered tag: elevation alone is not cover. Determine from imagery whether it has a continuous roof (covered linkway) or is an open elevated walkway.", "priority": "medium", "batch": false, "osm_way_ids": "263461648"}}, {"type": "Feature", "geometry": {"type": "LineString", "coordinates": [[101.6045498, 3.0738798], [101.6045563, 3.0742239], [101.6045643, 3.0747343], [101.6045718, 3.075213], [101.6045863, 3.0761351], [101.6045949, 3.0766811], [101.6046197, 3.0783097], [101.6047784, 3.0786416], [101.6048095, 3.0787065], [101.6049867, 3.0790531], [101.6052744, 3.0795517], [101.6054049, 3.0796473], [101.6060668, 3.0796828], [101.6068721, 3.0797004], [101.608227, 3.0797364], [101.6082249, 3.0783542], [101.6082243, 3.0779817], [101.6082236, 3.0775107], [101.6082229, 3.0770428], [101.6082222, 3.0765545]]}, "properties": {"review_id": "G024", "reason": "No coverage tag and no implicit signal; ground-level footway. determine from imagery whether any built overhead cover exists (trees/shadows don't count).", "priority": "medium", "batch": false, "osm_way_ids": "461676067"}}, {"type": "Feature", "geometry": {"type": "LineString", "coordinates": [[101.6036358, 3.072943], [101.6036117, 3.0731321]]}, "properties": {"review_id": "G025", "reason": "No coverage tag, ground-level, but shares an endpoint with a covered=yes way: may be the exposed approach or a covered extension. Determine cover from imagery.", "priority": "medium", "batch": false, "osm_way_ids": "603234075"}}, {"type": "Feature", "geometry": {"type": "LineString", "coordinates": [[101.6034936, 3.0739845], [101.6034815, 3.0737655]]}, "properties": {"review_id": "G026", "reason": "No coverage tag, ground-level, but shares an endpoint with a covered=yes way: may be the exposed approach or a covered extension. Determine cover from imagery.", "priority": "medium", "batch": false, "osm_way_ids": "603234076"}}, {"type": "Feature", "geometry": {"type": "LineString", "coordinates": [[101.6088811, 3.0718354], [101.6085235, 3.0718358]]}, "properties": {"review_id": "G027", "reason": "Indoor feature (indoor=yes): under a roof by definition. Confirm it is an enclosed walkable space and tag covered=yes.", "priority": "medium", "batch": false, "osm_way_ids": "603814879"}}, {"type": "Feature", "geometry": {"type": "LineString", "coordinates": [[101.6088152, 3.07296], [101.608814, 3.0729017]]}, "properties": {"review_id": "G028", "reason": "Indoor feature (indoor=yes): under a roof by definition. Confirm it is an enclosed walkable space and tag covered=yes.", "priority": "medium", "batch": false, "osm_way_ids": "603815894"}}, {"type": "Feature", "geometry": {"type": "LineString", "coordinates": [[101.6060848, 3.0715106], [101.6060928, 3.0716012]]}, "properties": {"review_id": "G030", "reason": "Corridor traversal pulled this way out of bulk inference: no cover signal tags mid-corridor \u2014 suspected gap in the elevated linkway roofline. Verify whether this short stretch is actually roofed.", "priority": "high", "batch": false, "osm_way_ids": "603816937"}}, {"type": "Feature", "geometry": {"type": "LineString", "coordinates": [[101.6013916, 3.0652252], [101.6013539, 3.0652109], [101.6013355, 3.0651837], [101.6012858, 3.0650862]]}, "properties": {"review_id": "G031", "reason": "No coverage tag, ground-level, but shares an endpoint with a covered=yes way: may be the exposed approach or a covered extension. Determine cover from imagery.", "priority": "medium", "batch": false, "osm_way_ids": "603816938"}}, {"type": "Feature", "geometry": {"type": "LineString", "coordinates": [[101.6091655, 3.0644289], [101.6091922, 3.0648425], [101.6086683, 3.0649206], [101.6086624, 3.0652054]]}, "properties": {"review_id": "G033", "reason": "Tagged tunnel=building_passage: passes through a building, so overhead cover is implied by definition. Confirm the passage is enclosed and record covered=yes with built-passage provenance.", "priority": "medium", "batch": false, "osm_way_ids": "764530865"}}, {"type": "Feature", "geometry": {"type": "LineString", "coordinates": [[101.6100814, 3.0659365], [101.6099415, 3.0659109], [101.6099282, 3.0656864], [101.6099633, 3.0651887]]}, "properties": {"review_id": "G034", "reason": "Elevated structure (bridge=yes / layer=1) but NO covered tag: elevation alone is not cover. Determine from imagery whether it has a continuous roof (covered linkway) or is an open elevated walkway.", "priority": "medium", "batch": false, "osm_way_ids": "764530866"}}, {"type": "Feature", "geometry": {"type": "LineString", "coordinates": [[101.5999784, 3.0643539], [101.6001026, 3.064267], [101.6002386, 3.064112], [101.6003098, 3.0640124], [101.6003932, 3.063882], [101.6004656, 3.0636637], [101.6004951, 3.063424]]}, "properties": {"review_id": "G035", "reason": "Elevated structure (bridge=yes / layer=-1) but NO covered tag: elevation alone is not cover. Determine from imagery whether it has a continuous roof (covered linkway) or is an open elevated walkway.", "priority": "medium", "batch": false, "osm_way_ids": "775140679"}}, {"type": "Feature", "geometry": {"type": "LineString", "coordinates": [[101.6007224, 3.0632304], [101.6007209, 3.0631996], [101.6003494, 3.0629854], [101.600347, 3.0629416]]}, "properties": {"review_id": "G036", "reason": "Elevated structure (bridge=yes / layer=2) but NO covered tag: elevation alone is not cover. Determine from imagery whether it has a continuous roof (covered linkway) or is an open elevated walkway.", "priority": "medium", "batch": false, "osm_way_ids": "775140680"}}, {"type": "Feature", "geometry": {"type": "LineString", "coordinates": [[101.6005598, 3.0733516], [101.600559, 3.0729113]]}, "properties": {"review_id": "G039", "reason": "Elevated structure (bridge=yes / layer=1) but NO covered tag: elevation alone is not cover. Determine from imagery whether it has a continuous roof (covered linkway) or is an open elevated walkway.", "priority": "medium", "batch": false, "osm_way_ids": "776301356"}}, {"type": "Feature", "geometry": {"type": "LineString", "coordinates": [[101.6086609, 3.074799], [101.608664, 3.0753692], [101.6086651, 3.0755657]]}, "properties": {"review_id": "G040", "reason": "No coverage tag and no implicit signal; ground-level footway. determine from imagery whether any built overhead cover exists (trees/shadows don't count).", "priority": "low", "batch": false, "osm_way_ids": "777826792"}}, {"type": "Feature", "geometry": {"type": "LineString", "coordinates": [[101.6102409, 3.0661404], [101.6099001, 3.0660956], [101.6089014, 3.0661205], [101.6085335, 3.0661015], [101.6085228, 3.0662772], [101.608015, 3.0662978], [101.60695, 3.0663124], [101.6064987, 3.0663197], [101.6061275, 3.0663338], [101.6060808, 3.0663602], [101.6058573, 3.0665954], [101.6058172, 3.0666778], [101.6056558, 3.0668425]]}, "properties": {"review_id": "G041", "reason": "Elevated structure (bridge=yes / layer=1) but NO covered tag: elevation alone is not cover. Determine from imagery whether it has a continuous roof (covered linkway) or is an open elevated walkway.", "priority": "high", "batch": false, "osm_way_ids": "820509852"}}, {"type": "Feature", "geometry": {"type": "LineString", "coordinates": [[101.6078281, 3.0709703], [101.6077809, 3.0708701], [101.6077758, 3.0707699], [101.6077819, 3.0707469], [101.6077986, 3.0706842], [101.6078469, 3.0706066], [101.6079569, 3.0705021], [101.6081909, 3.070258], [101.6081983, 3.0702503], [101.6082427, 3.0701602]]}, "properties": {"review_id": "G042", "reason": "No coverage tag and no implicit signal; ground-level footway. determine from imagery whether any built overhead cover exists (trees/shadows don't count).", "priority": "low", "batch": false, "osm_way_ids": "921167830"}}, {"type": "Feature", "geometry": {"type": "LineString", "coordinates": [[101.6060606, 3.0691161], [101.6061987, 3.0686179], [101.6062658, 3.0683822], [101.6063194, 3.0682617], [101.6063918, 3.0681693], [101.6064481, 3.0681371], [101.6066158, 3.0680648], [101.6067418, 3.0680353], [101.6068263, 3.0680273], [101.6068853, 3.0680353], [101.607167, 3.0681733], [101.6074017, 3.0682965], [101.6075586, 3.0683835], [101.6076404, 3.0684076], [101.6077678, 3.0684277], [101.6080226, 3.0684759], [101.6081852, 3.0685368], [101.6084504, 3.0686032], [101.608492, 3.0686527], [101.6085416, 3.0687304], [101.6085684, 3.0688174], [101.6085698, 3.0689406], [101.608559, 3.0691174], [101.6085134, 3.0693598], [101.6083391, 3.0699289], [101.6083142, 3.0699887], [101.6082427, 3.0701602]]}, "properties": {"review_id": "G043", "reason": "No coverage tag and no implicit signal; ground-level footway. Near the demo corridor \u2014 determine from imagery whether any built overhead cover exists (trees/shadows don't count).", "priority": "medium", "batch": false, "osm_way_ids": "921167831"}}, {"type": "Feature", "geometry": {"type": "LineString", "coordinates": [[101.6045296, 3.064059], [101.6046115, 3.0639748], [101.6046779, 3.0638986], [101.6047356, 3.0638062], [101.604757, 3.0637232], [101.6047423, 3.0635357], [101.6047315, 3.0634406], [101.6047771, 3.0632919], [101.6048128, 3.0632216], [101.6048683, 3.0631125], [101.6048777, 3.0630295], [101.6048791, 3.0628473], [101.6049018, 3.0627737], [101.6049689, 3.0626826], [101.6050038, 3.06255], [101.6050521, 3.0621791], [101.6050521, 3.0620237], [101.6050319, 3.0619166], [101.6049676, 3.0618349], [101.6048294, 3.0614398], [101.604761, 3.0613394], [101.6046605, 3.0612336], [101.6046178, 3.0612117], [101.604466, 3.0611466], [101.6043359, 3.0611211], [101.6041441, 3.0611278], [101.6040154, 3.061164], [101.6038893, 3.0611894], [101.6037498, 3.0611988], [101.6034602, 3.0611948], [101.6032831, 3.0611961], [101.6029371, 3.0612149], [101.6026823, 3.0612443], [101.6024852, 3.0613006], [101.602328, 3.0613519], [101.6022223, 3.0613702], [101.6020746, 3.061456], [101.6019647, 3.0615432], [101.6018472, 3.0616342], [101.6018153, 3.0618682]]}, "properties": {"review_id": "G044", "reason": "No coverage tag and no implicit signal; ground-level footway. Near the demo corridor \u2014 determine from imagery whether any built overhead cover exists (trees/shadows don't count).", "priority": "medium", "batch": false, "osm_way_ids": "930746843"}}, {"type": "Feature", "geometry": {"type": "LineString", "coordinates": [[101.6077169, 3.0755709], [101.6077141, 3.0750628], [101.6077127, 3.0748042]]}, "properties": {"review_id": "G045", "reason": "No coverage tag and no implicit signal; ground-level footway. determine from imagery whether any built overhead cover exists (trees/shadows don't count).", "priority": "low", "batch": false, "osm_way_ids": "931278406"}}, {"type": "Feature", "geometry": {"type": "LineString", "coordinates": [[101.6093815, 3.0634021], [101.6093705, 3.0642442], [101.6094134, 3.0642872], [101.6101398, 3.0642892], [101.6101963, 3.064247], [101.6101999, 3.0627661], [101.6100765, 3.0626432], [101.6099357, 3.0625953], [101.609511, 3.0626023], [101.6093906, 3.0626978], [101.6093826, 3.0633174]]}, "properties": {"review_id": "G046", "reason": "No coverage tag and no implicit signal; ground-level living_street. determine from imagery whether any built overhead cover exists (trees/shadows don't count).", "priority": "low", "batch": false, "osm_way_ids": "991986584"}}, {"type": "Feature", "geometry": {"type": "LineString", "coordinates": [[101.603908, 3.0677719], [101.6039079, 3.0677033], [101.6039077, 3.0674964]]}, "properties": {"review_id": "G048", "reason": "No coverage tag and no implicit signal; ground-level Avenue of Achievements. Near the demo corridor \u2014 determine from imagery whether any built overhead cover exists (trees/shadows don't count).", "priority": "medium", "batch": false, "osm_way_ids": "999073853"}}, {"type": "Feature", "geometry": {"type": "LineString", "coordinates": [[101.6086382, 3.0656479], [101.6098117, 3.0656523], [101.6098962, 3.0656864], [101.6099282, 3.0656864], [101.610593, 3.0656864]]}, "properties": {"review_id": "G049", "reason": "Elevated structure (bridge=yes / layer=1) but NO covered tag: elevation alone is not cover. Determine from imagery whether it has a continuous roof (covered linkway) or is an open elevated walkway.", "priority": "medium", "batch": false, "osm_way_ids": "999209165"}}, {"type": "Feature", "geometry": {"type": "LineString", "coordinates": [[101.6086382, 3.0656479], [101.6085628, 3.0657421], [101.6085335, 3.0661015]]}, "properties": {"review_id": "G050", "reason": "Elevated structure (bridge=yes / layer=1) but NO covered tag: elevation alone is not cover. Determine from imagery whether it has a continuous roof (covered linkway) or is an open elevated walkway.", "priority": "medium", "batch": false, "osm_way_ids": "1063221996"}}, {"type": "Feature", "geometry": {"type": "LineString", "coordinates": [[101.6045643, 3.0677322], [101.6044842, 3.0677162]]}, "properties": {"review_id": "G053", "reason": "No coverage tag, ground-level, but shares an endpoint with a covered=yes way: may be the exposed approach or a covered extension. Determine cover from imagery.", "priority": "high", "batch": false, "osm_way_ids": "1120344217"}}, {"type": "Feature", "geometry": {"type": "LineString", "coordinates": [[101.6092604, 3.0681559], [101.6095018, 3.0681398], [101.609539, 3.0681278], [101.6095971, 3.068109]]}, "properties": {"review_id": "G055", "reason": "Elevated structure (bridge=yes / layer=1) but NO covered tag: elevation alone is not cover. Determine from imagery whether it has a continuous roof (covered linkway) or is an open elevated walkway.", "priority": "medium", "batch": false, "osm_way_ids": "1230756958"}}, {"type": "Feature", "geometry": {"type": "LineString", "coordinates": [[101.608015, 3.0662978], [101.6080167, 3.0664488], [101.6080203, 3.0668332], [101.6083431, 3.0669412], [101.6085604, 3.0669868], [101.6087294, 3.0671334], [101.6087636, 3.0672312], [101.6088185, 3.0674709], [101.608838, 3.0677293], [101.6089533, 3.0678666], [101.6092028, 3.0680233], [101.6092604, 3.0681559], [101.6092846, 3.068571], [101.609412, 3.068567], [101.6094978, 3.0687076], [101.6094603, 3.0688295], [101.6093436, 3.0689647], [101.6093731, 3.0691107], [101.6095622, 3.0691723], [101.6096534, 3.0692674], [101.609652, 3.0693866], [101.6100115, 3.0693959], [101.6101308, 3.0694709], [101.6102686, 3.0694723]]}, "properties": {"review_id": "G056", "reason": "Elevated structure (bridge=yes / layer=1) but NO covered tag: elevation alone is not cover. Determine from imagery whether it has a continuous roof (covered linkway) or is an open elevated walkway.", "priority": "medium", "batch": false, "osm_way_ids": "1230756959"}}, {"type": "Feature", "geometry": {"type": "LineString", "coordinates": [[101.6047114, 3.0675277], [101.6045189, 3.0676552]]}, "properties": {"review_id": "G057", "reason": "Elevated structure (bridge=yes / layer=1) but NO covered tag: elevation alone is not cover. Determine from imagery whether it has a continuous roof (covered linkway) or is an open elevated walkway. Shares an endpoint with a covered=yes way \u2014 likely a covered-network transition point.", "priority": "high", "batch": false, "osm_way_ids": "1232335176"}}, {"type": "Feature", "geometry": {"type": "LineString", "coordinates": [[101.6091189, 3.0637765], [101.6091117, 3.0634324]]}, "properties": {"review_id": "G058", "reason": "Indoor feature (indoor=yes): under a roof by definition. Confirm it is an enclosed walkable space and tag covered=yes.", "priority": "medium", "batch": false, "osm_way_ids": "1232335177"}}, {"type": "Feature", "geometry": {"type": "LineString", "coordinates": [[101.6091655, 3.0644289], [101.6091125, 3.0640844]]}, "properties": {"review_id": "G060", "reason": "Indoor feature (indoor=yes): under a roof by definition. Confirm it is an enclosed walkable space and tag covered=yes.", "priority": "medium", "batch": false, "osm_way_ids": "1232335179"}}, {"type": "Feature", "geometry": {"type": "LineString", "coordinates": [[101.6042885, 3.0683626], [101.6034697, 3.0683753]]}, "properties": {"review_id": "G061", "reason": "No coverage tag and no implicit signal; ground-level footway. Near the demo corridor \u2014 determine from imagery whether any built overhead cover exists (trees/shadows don't count).", "priority": "high", "batch": false, "osm_way_ids": "1234667533"}}, {"type": "Feature", "geometry": {"type": "LineString", "coordinates": [[101.6046954, 3.0683563], [101.604474, 3.0683597], [101.6042885, 3.0683626]]}, "properties": {"review_id": "G062", "reason": "Elevated structure (bridge=yes / layer=1) but NO covered tag: elevation alone is not cover. Determine from imagery whether it has a continuous roof (covered linkway) or is an open elevated walkway. Shares an endpoint with a covered=yes way \u2014 likely a covered-network transition point.", "priority": "high", "batch": false, "osm_way_ids": "1234667534"}}, {"type": "Feature", "geometry": {"type": "LineString", "coordinates": [[101.6064722, 3.0673821], [101.6066467, 3.0679249], [101.6068853, 3.0680353]]}, "properties": {"review_id": "G064", "reason": "No coverage tag and no implicit signal; ground-level footway. determine from imagery whether any built overhead cover exists (trees/shadows don't count).", "priority": "medium", "batch": false, "osm_way_ids": "1249942558"}}, {"type": "Feature", "geometry": {"type": "LineString", "coordinates": [[101.6088152, 3.07296], [101.6087151, 3.0729589], [101.6087121, 3.0730928], [101.6076459, 3.0730746], [101.6075852, 3.0730735], [101.6066568, 3.0730577], [101.6060707, 3.0730476]]}, "properties": {"review_id": "G065", "reason": "Indoor corridor (highway=corridor + indoor=yes): inside a building, covered by definition. Confirm it is a real enclosed walkable corridor (not an open atrium) and tag covered=yes.", "priority": "medium", "batch": false, "osm_way_ids": "1303647076"}}, {"type": "Feature", "geometry": {"type": "LineString", "coordinates": [[101.6060816, 3.0720421], [101.6072307, 3.0720477], [101.6072622, 3.0723057], [101.6072713, 3.0723806], [101.6076465, 3.0723686], [101.6078844, 3.0723611], [101.6081471, 3.0723582]]}, "properties": {"review_id": "G066", "reason": "Indoor corridor (highway=corridor + indoor=yes): inside a building, covered by definition. Confirm it is a real enclosed walkable corridor (not an open atrium) and tag covered=yes.", "priority": "medium", "batch": false, "osm_way_ids": "1303647079"}}, {"type": "Feature", "geometry": {"type": "LineString", "coordinates": [[101.6087151, 3.0729589], [101.6087084, 3.0727545], [101.6081436, 3.072767], [101.607647, 3.072778], [101.6076465, 3.0723686]]}, "properties": {"review_id": "G067", "reason": "Indoor corridor (highway=corridor + indoor=yes): inside a building, covered by definition. Confirm it is a real enclosed walkable corridor (not an open atrium) and tag covered=yes.", "priority": "medium", "batch": false, "osm_way_ids": "1303647080"}}, {"type": "Feature", "geometry": {"type": "LineString", "coordinates": [[101.6081471, 3.0723582], [101.6081436, 3.072767]]}, "properties": {"review_id": "G068", "reason": "Indoor corridor (highway=corridor + indoor=yes): inside a building, covered by definition. Confirm it is a real enclosed walkable corridor (not an open atrium) and tag covered=yes.", "priority": "medium", "batch": false, "osm_way_ids": "1303647081"}}, {"type": "Feature", "geometry": {"type": "LineString", "coordinates": [[101.607647, 3.072778], [101.6076459, 3.0730746]]}, "properties": {"review_id": "G069", "reason": "Indoor corridor (highway=corridor + indoor=yes): inside a building, covered by definition. Confirm it is a real enclosed walkable corridor (not an open atrium) and tag covered=yes.", "priority": "medium", "batch": false, "osm_way_ids": "1303647082"}}, {"type": "Feature", "geometry": {"type": "LineString", "coordinates": [[101.6075852, 3.0730735], [101.6075806, 3.0732429]]}, "properties": {"review_id": "G070", "reason": "Indoor corridor (highway=corridor + indoor=yes): inside a building, covered by definition. Confirm it is a real enclosed walkable corridor (not an open atrium) and tag covered=yes.", "priority": "medium", "batch": false, "osm_way_ids": "1303647084"}}, {"type": "Feature", "geometry": {"type": "LineString", "coordinates": [[101.6075738, 3.0732875], [101.6075806, 3.0732429]]}, "properties": {"review_id": "G072", "reason": "Indoor corridor (highway=corridor + indoor=yes): inside a building, covered by definition. Confirm it is a real enclosed walkable corridor (not an open atrium) and tag covered=yes.", "priority": "medium", "batch": false, "osm_way_ids": "1303647086"}}, {"type": "Feature", "geometry": {"type": "LineString", "coordinates": [[101.6066568, 3.0730577], [101.6066528, 3.0733165]]}, "properties": {"review_id": "G073", "reason": "Indoor corridor (highway=corridor + indoor=yes): inside a building, covered by definition. Confirm it is a real enclosed walkable corridor (not an open atrium) and tag covered=yes.", "priority": "medium", "batch": false, "osm_way_ids": "1303647087"}}, {"type": "Feature", "geometry": {"type": "LineString", "coordinates": [[101.605924, 3.0733552], [101.6059252, 3.0730476]]}, "properties": {"review_id": "G074", "reason": "Indoor corridor (highway=corridor + indoor=yes): inside a building, covered by definition. Confirm it is a real enclosed walkable corridor (not an open atrium) and tag covered=yes.", "priority": "medium", "batch": false, "osm_way_ids": "1303647088"}}, {"type": "Feature", "geometry": {"type": "LineString", "coordinates": [[101.605238, 3.0712623], [101.6051312, 3.0713008], [101.6049929, 3.0713593], [101.6049425, 3.0713966], [101.6048807, 3.0714259], [101.6047523, 3.0714226], [101.6046043, 3.0714275], [101.6045734, 3.0714307], [101.6045718, 3.0715444], [101.6045636, 3.0716467], [101.6045766, 3.0717523], [101.6045718, 3.0718188]]}, "properties": {"review_id": "G075", "reason": "No coverage tag and no implicit signal; ground-level footway. Near the demo corridor \u2014 determine from imagery whether any built overhead cover exists (trees/shadows don't count).", "priority": "high", "batch": false, "osm_way_ids": "1303647089"}}, {"type": "Feature", "geometry": {"type": "LineString", "coordinates": [[101.6056023, 3.0707394], [101.6055974, 3.0707333], [101.6055112, 3.0706255], [101.6054288, 3.0705433], [101.6053347, 3.0704446]]}, "properties": {"review_id": "G076", "reason": "No coverage tag and no implicit signal; ground-level footway. Near the demo corridor \u2014 determine from imagery whether any built overhead cover exists (trees/shadows don't count).", "priority": "high", "batch": false, "osm_way_ids": "1303647090"}}, {"type": "Feature", "geometry": {"type": "LineString", "coordinates": [[101.6072622, 3.0723057], [101.6060774, 3.0723193]]}, "properties": {"review_id": "G077", "reason": "Indoor corridor (highway=corridor + indoor=yes): inside a building, covered by definition. Confirm it is a real enclosed walkable corridor (not an open atrium) and tag covered=yes.", "priority": "medium", "batch": false, "osm_way_ids": "1303647091"}}, {"type": "Feature", "geometry": {"type": "LineString", "coordinates": [[101.605924, 3.0733552], [101.6059234, 3.0734125]]}, "properties": {"review_id": "G078", "reason": "No coverage tag and no implicit signal; ground-level footway. Near the demo corridor \u2014 determine from imagery whether any built overhead cover exists (trees/shadows don't count).", "priority": "high", "batch": false, "osm_way_ids": "1303647092"}}, {"type": "Feature", "geometry": {"type": "LineString", "coordinates": [[101.605406, 3.0714307], [101.6054176, 3.0713699]]}, "properties": {"review_id": "G079", "reason": "Indoor corridor (highway=corridor + indoor=yes): inside a building, covered by definition. Confirm it is a real enclosed walkable corridor (not an open atrium) and tag covered=yes.", "priority": "medium", "batch": false, "osm_way_ids": "1303647093"}}, {"type": "Feature", "geometry": {"type": "LineString", "coordinates": [[101.6054176, 3.0713699], [101.6054273, 3.0713104], [101.6054146, 3.0712738], [101.6053856, 3.0712474], [101.6053181, 3.0711951]]}, "properties": {"review_id": "G080", "reason": "No coverage tag and no implicit signal; ground-level footway. Near the demo corridor \u2014 determine from imagery whether any built overhead cover exists (trees/shadows don't count).", "priority": "high", "batch": false, "osm_way_ids": "1303647094"}}, {"type": "Feature", "geometry": {"type": "LineString", "coordinates": [[101.605238, 3.0712623], [101.6053181, 3.0711951], [101.6054671, 3.0710674]]}, "properties": {"review_id": "G081", "reason": "No coverage tag and no implicit signal; ground-level footway. Near the demo corridor \u2014 determine from imagery whether any built overhead cover exists (trees/shadows don't count).", "priority": "high", "batch": false, "osm_way_ids": "1303647095"}}, {"type": "Feature", "geometry": {"type": "LineString", "coordinates": [[101.6054671, 3.0710674], [101.6055612, 3.0709866]]}, "properties": {"review_id": "G082", "reason": "Indoor corridor (highway=corridor + indoor=yes): inside a building, covered by definition. Confirm it is a real enclosed walkable corridor (not an open atrium) and tag covered=yes.", "priority": "medium", "batch": false, "osm_way_ids": "1303647096"}}, {"type": "Feature", "geometry": {"type": "LineString", "coordinates": [[101.6055612, 3.0709866], [101.6056942, 3.0708707], [101.6056989, 3.070866], [101.6056023, 3.0707394]]}, "properties": {"review_id": "G083", "reason": "No coverage tag and no implicit signal; ground-level footway. Near the demo corridor \u2014 determine from imagery whether any built overhead cover exists (trees/shadows don't count).", "priority": "high", "batch": false, "osm_way_ids": "1303647097"}}, {"type": "Feature", "geometry": {"type": "LineString", "coordinates": [[101.6057337, 3.0706424], [101.6056182, 3.0707181]]}, "properties": {"review_id": "G084", "reason": "Indoor corridor (highway=corridor + indoor=yes): inside a building, covered by definition. Confirm it is a real enclosed walkable corridor (not an open atrium) and tag covered=yes.", "priority": "medium", "batch": false, "osm_way_ids": "1303647098"}}, {"type": "Feature", "geometry": {"type": "LineString", "coordinates": [[101.6056182, 3.0707181], [101.6055974, 3.0707333]]}, "properties": {"review_id": "G085", "reason": "No coverage tag and no implicit signal; ground-level footway. Near the demo corridor \u2014 determine from imagery whether any built overhead cover exists (trees/shadows don't count).", "priority": "high", "batch": false, "osm_way_ids": "1303647099"}}, {"type": "Feature", "geometry": {"type": "LineString", "coordinates": [[101.605291, 3.0715587], [101.6052944, 3.0715079]]}, "properties": {"review_id": "G086", "reason": "No coverage tag and no implicit signal; ground-level footway. Near the demo corridor \u2014 determine from imagery whether any built overhead cover exists (trees/shadows don't count).", "priority": "high", "batch": false, "osm_way_ids": "1303647100"}}, {"type": "Feature", "geometry": {"type": "LineString", "coordinates": [[101.6052944, 3.0715079], [101.6053012, 3.0714344], [101.605406, 3.0714307]]}, "properties": {"review_id": "G087", "reason": "Indoor corridor (highway=corridor + indoor=yes): inside a building, covered by definition. Confirm it is a real enclosed walkable corridor (not an open atrium) and tag covered=yes.", "priority": "medium", "batch": false, "osm_way_ids": "1303647101"}}, {"type": "Feature", "geometry": {"type": "LineString", "coordinates": [[101.6060911, 3.0704282], [101.6062009, 3.0707081]]}, "properties": {"review_id": "G088", "reason": "Indoor corridor (highway=corridor + indoor=yes): inside a building, covered by definition. Confirm it is a real enclosed walkable corridor (not an open atrium) and tag covered=yes.", "priority": "medium", "batch": false, "osm_way_ids": "1303647102"}}, {"type": "Feature", "geometry": {"type": "LineString", "coordinates": [[101.6062009, 3.0707081], [101.6062402, 3.070769], [101.6063805, 3.0707926], [101.6064565, 3.0707935]]}, "properties": {"review_id": "G089", "reason": "No coverage tag and no implicit signal; ground-level footway. Near the demo corridor \u2014 determine from imagery whether any built overhead cover exists (trees/shadows don't count).", "priority": "high", "batch": false, "osm_way_ids": "1303647103"}}, {"type": "Feature", "geometry": {"type": "LineString", "coordinates": [[101.6064565, 3.0707935], [101.6066893, 3.070805]]}, "properties": {"review_id": "G090", "reason": "Indoor corridor (highway=corridor + indoor=yes): inside a building, covered by definition. Confirm it is a real enclosed walkable corridor (not an open atrium) and tag covered=yes.", "priority": "medium", "batch": false, "osm_way_ids": "1303647104"}}, {"type": "Feature", "geometry": {"type": "LineString", "coordinates": [[101.6066893, 3.070805], [101.6067545, 3.0707813], [101.6068958, 3.0707895], [101.6069973, 3.0707936], [101.6070516, 3.0707772], [101.6071263, 3.0707783], [101.607237, 3.0707895], [101.6072974, 3.0707967]]}, "properties": {"review_id": "G091", "reason": "No coverage tag and no implicit signal; ground-level footway. Near the demo corridor \u2014 determine from imagery whether any built overhead cover exists (trees/shadows don't count).", "priority": "medium", "batch": false, "osm_way_ids": "1303647105"}}, {"type": "Feature", "geometry": {"type": "LineString", "coordinates": [[101.6072974, 3.0707967], [101.6074475, 3.0708104]]}, "properties": {"review_id": "G092", "reason": "Indoor corridor (highway=corridor + indoor=yes): inside a building, covered by definition. Confirm it is a real enclosed walkable corridor (not an open atrium) and tag covered=yes.", "priority": "medium", "batch": false, "osm_way_ids": "1303647106"}}, {"type": "Feature", "geometry": {"type": "LineString", "coordinates": [[101.6055112, 3.0706255], [101.6055435, 3.0705977], [101.6059423, 3.0703969]]}, "properties": {"review_id": "G094", "reason": "No coverage tag and no implicit signal; ground-level steps. Near the demo corridor \u2014 determine from imagery whether any built overhead cover exists (trees/shadows don't count).", "priority": "high", "batch": false, "osm_way_ids": "1303647108"}}, {"type": "Feature", "geometry": {"type": "LineString", "coordinates": [[101.6059423, 3.0703969], [101.6060518, 3.0703519]]}, "properties": {"review_id": "G095", "reason": "No coverage tag and no implicit signal; ground-level steps. Near the demo corridor \u2014 determine from imagery whether any built overhead cover exists (trees/shadows don't count).", "priority": "high", "batch": false, "osm_way_ids": "1303647109"}}, {"type": "Feature", "geometry": {"type": "LineString", "coordinates": [[101.6060518, 3.0703519], [101.6060911, 3.0704282]]}, "properties": {"review_id": "G096", "reason": "Indoor corridor (highway=corridor + indoor=yes): inside a building, covered by definition. Confirm it is a real enclosed walkable corridor (not an open atrium) and tag covered=yes.", "priority": "medium", "batch": false, "osm_way_ids": "1303647110"}}, {"type": "Feature", "geometry": {"type": "LineString", "coordinates": [[101.6058854, 3.0721449], [101.6058902, 3.0718576], [101.6056866, 3.0717853]]}, "properties": {"review_id": "G097", "reason": "Indoor corridor (highway=corridor + indoor=yes): inside a building, covered by definition. Confirm it is a real enclosed walkable corridor (not an open atrium) and tag covered=yes.", "priority": "medium", "batch": false, "osm_way_ids": "1303809993"}}, {"type": "Feature", "geometry": {"type": "LineString", "coordinates": [[101.6054826, 3.0717587], [101.6056866, 3.0717853]]}, "properties": {"review_id": "G098", "reason": "No coverage tag and no implicit signal; ground-level footway. Near the demo corridor \u2014 determine from imagery whether any built overhead cover exists (trees/shadows don't count).", "priority": "high", "batch": false, "osm_way_ids": "1303809994"}}, {"type": "Feature", "geometry": {"type": "LineString", "coordinates": [[101.605406, 3.0714307], [101.6054523, 3.0714394], [101.605486, 3.0714497], [101.6055196, 3.0714702], [101.6055551, 3.0715], [101.6055831, 3.0715327], [101.6056289, 3.071515], [101.6056709, 3.0715075], [101.6057, 3.0715225], [101.6057161, 3.0715528], [101.6057417, 3.0716036]]}, "properties": {"review_id": "G099", "reason": "Indoor corridor (highway=corridor + indoor=yes): inside a building, covered by definition. Confirm it is a real enclosed walkable corridor (not an open atrium) and tag covered=yes.", "priority": "medium", "batch": false, "osm_way_ids": "1303809995"}}, {"type": "Feature", "geometry": {"type": "LineString", "coordinates": [[101.6057417, 3.0716036], [101.6057548, 3.0716243], [101.6057651, 3.0716309]]}, "properties": {"review_id": "G100", "reason": "Indoor corridor (highway=corridor + indoor=yes): inside a building, covered by definition. Confirm it is a real enclosed walkable corridor (not an open atrium) and tag covered=yes.", "priority": "medium", "batch": false, "osm_way_ids": "1303809996"}}, {"type": "Feature", "geometry": {"type": "LineString", "coordinates": [[101.6057651, 3.0716309], [101.6058023, 3.071636], [101.6058372, 3.0716308], [101.6058959, 3.0716238], [101.6059507, 3.0716192], [101.6060108, 3.0716147], [101.6060925, 3.0716138]]}, "properties": {"review_id": "G101", "reason": "Indoor corridor (highway=corridor + indoor=yes): inside a building, covered by definition. Confirm it is a real enclosed walkable corridor (not an open atrium) and tag covered=yes.", "priority": "medium", "batch": false, "osm_way_ids": "1303809997"}}, {"type": "Feature", "geometry": {"type": "LineString", "coordinates": [[101.6087629, 3.0720743], [101.6086739, 3.0720947], [101.608659, 3.0721595], [101.6086022, 3.0721919], [101.6085387, 3.0722], [101.6084752, 3.0722054], [101.6083941, 3.0722054], [101.6083697, 3.0722095]]}, "properties": {"review_id": "G104", "reason": "Indoor corridor (highway=corridor + indoor=yes): inside a building, covered by definition. Confirm it is a real enclosed walkable corridor (not an open atrium) and tag covered=yes.", "priority": "medium", "batch": false, "osm_way_ids": "1303810000"}}, {"type": "Feature", "geometry": {"type": "LineString", "coordinates": [[101.6015415, 3.0653151], [101.6015403, 3.0653705], [101.6016145, 3.0653721], [101.6016099, 3.0655276]]}, "properties": {"review_id": "G105", "reason": "Elevated structure (bridge=yes / layer=1) but NO covered tag: elevation alone is not cover. Determine from imagery whether it has a continuous roof (covered linkway) or is an open elevated walkway.", "priority": "medium", "batch": false, "osm_way_ids": "1303810001"}}, {"type": "Feature", "geometry": {"type": "LineString", "coordinates": [[101.6015415, 3.0653151], [101.6015427, 3.0652655], [101.601544, 3.0652241], [101.6015441, 3.0652026]]}, "properties": {"review_id": "G106", "reason": "Elevated structure (bridge=yes / layer=1) but NO covered tag: elevation alone is not cover. Determine from imagery whether it has a continuous roof (covered linkway) or is an open elevated walkway.", "priority": "medium", "batch": false, "osm_way_ids": "1303810002"}}, {"type": "Feature", "geometry": {"type": "LineString", "coordinates": [[101.6051035, 3.0733828], [101.6043752, 3.0732982], [101.6040802, 3.073179]]}, "properties": {"review_id": "G107", "reason": "No coverage tag and no implicit signal; ground-level footway. Near the demo corridor \u2014 determine from imagery whether any built overhead cover exists (trees/shadows don't count).", "priority": "high", "batch": false, "osm_way_ids": "1309283276"}}, {"type": "Feature", "geometry": {"type": "LineString", "coordinates": [[101.6053226, 3.0723818], [101.6054764, 3.0723818]]}, "properties": {"review_id": "G108", "reason": "Indoor corridor (highway=corridor + indoor=yes): inside a building, covered by definition. Confirm it is a real enclosed walkable corridor (not an open atrium) and tag covered=yes.", "priority": "medium", "batch": false, "osm_way_ids": "1364063296"}}, {"type": "Feature", "geometry": {"type": "LineString", "coordinates": [[101.6086968, 3.0735422], [101.6079511, 3.0735317], [101.6078097, 3.0735286], [101.6077284, 3.0735275], [101.6077305, 3.0734761]]}, "properties": {"review_id": "G109", "reason": "No coverage tag and no implicit signal; ground-level footway. determine from imagery whether any built overhead cover exists (trees/shadows don't count).", "priority": "medium", "batch": false, "osm_way_ids": "1427875104"}}, {"type": "Feature", "geometry": {"type": "LineString", "coordinates": [[101.6085296, 3.0737155], [101.6080996, 3.0736931], [101.6079686, 3.0736898], [101.6079493, 3.0736678], [101.6079511, 3.0735317]]}, "properties": {"review_id": "G110", "reason": "No coverage tag and no implicit signal; ground-level footway. determine from imagery whether any built overhead cover exists (trees/shadows don't count).", "priority": "low", "batch": false, "osm_way_ids": "1427916322"}}, {"type": "Feature", "geometry": {"type": "LineString", "coordinates": [[101.6068594, 3.0649294], [101.6069071, 3.0649366]]}, "properties": {"review_id": "G111", "reason": "Corridor traversal pulled this way out of bulk inference: no cover signal tags mid-corridor \u2014 suspected gap in the elevated linkway roofline. Verify whether this short stretch is actually roofed.", "priority": "high", "batch": false, "osm_way_ids": "1460003881"}}, {"type": "Feature", "geometry": {"type": "LineString", "coordinates": [[101.6051448, 3.0693232], [101.6051226, 3.0693234]]}, "properties": {"review_id": "G112", "reason": "Elevated structure (bridge=yes / layer=1) but NO covered tag: elevation alone is not cover. Determine from imagery whether it has a continuous roof (covered linkway) or is an open elevated walkway. Shares an endpoint with a covered=yes way \u2014 likely a covered-network transition point.", "priority": "high", "batch": false, "osm_way_ids": "1460003887"}}, {"type": "Feature", "geometry": {"type": "LineString", "coordinates": [[101.6064987, 3.0663197], [101.6065753, 3.0659998], [101.6065658, 3.0652069]]}, "properties": {"review_id": "G113", "reason": "Elevated structure (bridge=yes / layer=1) but NO covered tag: elevation alone is not cover. Determine from imagery whether it has a continuous roof (covered linkway) or is an open elevated walkway.", "priority": "high", "batch": false, "osm_way_ids": "1460003888"}}, {"type": "Feature", "geometry": {"type": "LineString", "coordinates": [[101.6051487, 3.065185], [101.6051912, 3.0655485]]}, "properties": {"review_id": "G114", "reason": "Elevated structure (bridge=yes / layer=1) but NO covered tag: elevation alone is not cover. Determine from imagery whether it has a continuous roof (covered linkway) or is an open elevated walkway.", "priority": "high", "batch": false, "osm_way_ids": "1460003889"}}, {"type": "Feature", "geometry": {"type": "LineString", "coordinates": [[101.6051912, 3.0655485], [101.6053211, 3.0655763]]}, "properties": {"review_id": "G115", "reason": "No coverage tag and no implicit signal; ground-level steps. Near the demo corridor \u2014 determine from imagery whether any built overhead cover exists (trees/shadows don't count).", "priority": "high", "batch": false, "osm_way_ids": "1460003890"}}, {"type": "Feature", "geometry": {"type": "LineString", "coordinates": [[101.6045424, 3.0656598], [101.6046285, 3.0655719], [101.6048188, 3.0655416], [101.6053211, 3.0655763], [101.6054518, 3.0655853]]}, "properties": {"review_id": "G116", "reason": "No coverage tag and no implicit signal; ground-level footway. Near the demo corridor \u2014 determine from imagery whether any built overhead cover exists (trees/shadows don't count).", "priority": "high", "batch": false, "osm_way_ids": "1460003891"}}, {"type": "Feature", "geometry": {"type": "LineString", "coordinates": [[101.6046939, 3.0682641], [101.6050936, 3.0682704]]}, "properties": {"review_id": "G117", "reason": "Elevated structure (bridge=yes / layer=1) but NO covered tag: elevation alone is not cover. Determine from imagery whether it has a continuous roof (covered linkway) or is an open elevated walkway. Shares an endpoint with a covered=yes way \u2014 likely a covered-network transition point.", "priority": "high", "batch": false, "osm_way_ids": "1467743200"}}, {"type": "Feature", "geometry": {"type": "LineString", "coordinates": [[101.6046654, 3.0650783], [101.605055, 3.0650936]]}, "properties": {"review_id": "G118", "reason": "Corridor traversal pulled this way out of bulk inference: no cover signal tags mid-corridor \u2014 suspected gap in the elevated linkway roofline. Verify whether this short stretch is actually roofed.", "priority": "high", "batch": false, "osm_way_ids": "1467745042"}}, {"type": "Feature", "geometry": {"type": "LineString", "coordinates": [[101.6072667, 3.064924], [101.6086683, 3.0649206]]}, "properties": {"review_id": "G119", "reason": "Tagged tunnel=building_passage: passes through a building, so overhead cover is implied by definition. Confirm the passage is enclosed and record covered=yes with built-passage provenance.", "priority": "high", "batch": false, "osm_way_ids": "1467785088"}}, {"type": "Feature", "geometry": {"type": "LineString", "coordinates": [[101.6032966, 3.0689956], [101.6032989, 3.0683779], [101.6033028, 3.0677072], [101.6033069, 3.0668412], [101.6033127, 3.0657192], [101.6033133, 3.065513], [101.6033237, 3.0654334], [101.604353, 3.0655031]]}, "properties": {"review_id": "G120", "reason": "No coverage tag and no implicit signal; ground-level footway. Near the demo corridor \u2014 determine from imagery whether any built overhead cover exists (trees/shadows don't count).", "priority": "high", "batch": false, "osm_way_ids": "1467785089"}}, {"type": "Feature", "geometry": {"type": "LineString", "coordinates": [[101.604353, 3.0655031], [101.6044536, 3.0655088], [101.604572, 3.0655155], [101.6046285, 3.0655719]]}, "properties": {"review_id": "G121", "reason": "No coverage tag and no implicit signal; ground-level footway. Near the demo corridor \u2014 determine from imagery whether any built overhead cover exists (trees/shadows don't count).", "priority": "high", "batch": false, "osm_way_ids": "1467785090"}}, {"type": "Feature", "geometry": {"type": "LineString", "coordinates": [[101.6011283, 3.065429], [101.6015779, 3.0654456], [101.6017474, 3.0654574], [101.6023684, 3.0654692], [101.6025172, 3.0654808], [101.6032322, 3.0655244], [101.6033133, 3.065513]]}, "properties": {"review_id": "G130", "reason": "No coverage tag and no implicit signal; ground-level footway. determine from imagery whether any built overhead cover exists (trees/shadows don't count).", "priority": "medium", "batch": false, "osm_way_ids": "1469997601"}}, {"type": "Feature", "geometry": {"type": "LineString", "coordinates": [[101.6094802, 3.0640943], [101.6091655, 3.0644289]]}, "properties": {"review_id": "G131", "reason": "Elevated structure (bridge=yes / layer=1) but NO covered tag: elevation alone is not cover. Determine from imagery whether it has a continuous roof (covered linkway) or is an open elevated walkway.", "priority": "medium", "batch": false, "osm_way_ids": "1469997607"}}, {"type": "Feature", "geometry": {"type": "LineString", "coordinates": [[101.6086624, 3.0652054], [101.6086402, 3.065615], [101.6086382, 3.0656479]]}, "properties": {"review_id": "G132", "reason": "Elevated structure (bridge=yes / layer=1) but NO covered tag: elevation alone is not cover. Determine from imagery whether it has a continuous roof (covered linkway) or is an open elevated walkway.", "priority": "medium", "batch": false, "osm_way_ids": "1469997608"}}, {"type": "Feature", "geometry": {"type": "LineString", "coordinates": [[101.6065753, 3.0659998], [101.6069313, 3.0660166]]}, "properties": {"review_id": "G133", "reason": "Elevated structure (bridge=yes / layer=1) but NO covered tag: elevation alone is not cover. Determine from imagery whether it has a continuous roof (covered linkway) or is an open elevated walkway.", "priority": "high", "batch": false, "osm_way_ids": "1481677600"}}, {"type": "Feature", "geometry": {"type": "LineString", "coordinates": [[101.6047965, 3.0638748], [101.6049632, 3.0640894]]}, "properties": {"review_id": "G134", "reason": "No coverage tag and no implicit signal; ground-level footway. Near the demo corridor \u2014 determine from imagery whether any built overhead cover exists (trees/shadows don't count).", "priority": "medium", "batch": false, "osm_way_ids": "1511509679"}}, {"type": "Feature", "geometry": {"type": "LineString", "coordinates": [[101.6087412, 3.0742604], [101.6087394, 3.0743959]]}, "properties": {"review_id": "G135", "reason": "Batch of 27 short ground-level ways with no coverage tag, no implicit signal, no covered-network adjacency, and no building-passage or elevation context. Expected open to sky; spot-check with imagery.", "priority": "low", "batch": true, "osm_way_ids": "151224274,210994244,210994304,221195953,221195960,221195964,221195967,221195973,221195974,263461647,603815895,764530864,776301354,776301355,992117732,1230756957,1232335178,1234667535,1303809998,1303809999,1469997594,1469997595,1469997596,1469997597,1469997598,1469997599,1469997600"}}, {"type": "Feature", "geometry": {"type": "LineString", "coordinates": [[101.6085067, 3.0656132], [101.6086402, 3.065615]]}, "properties": {"review_id": "G136", "reason": "Batch of 5 short ground-level ways with no coverage tag, no implicit signal, no covered-network adjacency, and no building-passage or elevation context. Expected open to sky; spot-check with imagery.", "priority": "medium", "batch": true, "osm_way_ids": "1063221997,1063221998,1303647085,1303647107,1467785091"}}]}