{"type": "FeatureCollection", "features": [{"type": "Feature", "properties": {"osm_way_id": 151209905, "osm_tags": {"bridge": "yes", "highway": "footway", "layer": "1"}, "length_m": 67.45, "status": "implicit_review", "status_reason": "no covered tag; possibly covered: layer=1, bridge=yes", "covered": "no", "coverage_source": "default_pending", "coverage_confidence": "low"}, "geometry": {"type": "LineString", "coordinates": [[101.6059746, 3.0741126], [101.6060852, 3.0741326], [101.6061442, 3.0736985], [101.6061012, 3.0736621]]}}, {"type": "Feature", "properties": {"osm_way_id": 151209906, "osm_tags": {"footway": "sidewalk", "highway": "footway"}, "length_m": 9.06, "status": "missing", "status_reason": "no covered tag and no implicit cover signal", "covered": "no", "coverage_source": "default_pending", "coverage_confidence": "low"}, "geometry": {"type": "LineString", "coordinates": [[101.6059746, 3.0741126], [101.6059618, 3.0741931]]}}, {"type": "Feature", "properties": {"osm_way_id": 151224274, "osm_tags": {"handrail": "yes", "highway": "steps"}, "length_m": 15.07, "status": "missing", "status_reason": "no covered tag and no implicit cover signal", "covered": "no", "coverage_source": "default_pending", "coverage_confidence": "low"}, "geometry": {"type": "LineString", "coordinates": [[101.6087412, 3.0742604], [101.6087394, 3.0743959]]}}, {"type": "Feature", "properties": {"osm_way_id": 210983319, "osm_tags": {"highway": "footway", "oneway": "no"}, "length_m": 951.72, "status": "missing", "status_reason": "no covered tag and no implicit cover signal", "covered": "no", "coverage_source": "default_pending", "coverage_confidence": "low"}, "geometry": {"type": "LineString", "coordinates": [[101.6018153, 3.0618682], [101.601831, 3.0619756], [101.6018684, 3.0620424], [101.6019327, 3.0621281], [101.6021069, 3.0622806], [101.6021446, 3.0623424], [101.6021607, 3.0625138], [101.6021393, 3.0626075], [101.602099, 3.062704], [101.6020452, 3.0627895], [101.6020346, 3.0628513], [101.60204, 3.062945], [101.6020908, 3.0631136], [101.6021069, 3.0634806], [101.6021364, 3.0635636], [101.6022545, 3.0637323], [101.6023216, 3.0639307], [101.6023993, 3.0640993], [101.6024851, 3.0642251], [101.6025897, 3.0643242], [101.6026943, 3.0643885], [101.6028258, 3.0644189], [101.6030593, 3.0644516], [101.6033368, 3.0644808], [101.6037293, 3.0644607], [101.6039069, 3.0644458], [101.604025, 3.0643778], [101.6043843, 3.0641552], [101.6045296, 3.064059], [101.6047168, 3.0639474], [101.6047965, 3.0638748], [101.6048577, 3.0637561], [101.6049313, 3.0636941], [101.6049663, 3.0634325], [101.6050516, 3.0631698], [101.6050628, 3.0631352], [101.6052398, 3.0628512], [101.6053445, 3.062645], [101.6053874, 3.0624951], [101.6053981, 3.0623665], [101.6053845, 3.0619646], [101.6052989, 3.0617397], [101.605087, 3.0613299], [101.6050789, 3.0611719], [101.6050068, 3.0611394], [101.6047922, 3.0611367], [101.6046956, 3.0611608], [101.6046178, 3.0612117]]}}, {"type": "Feature", "properties": {"osm_way_id": 210994197, "osm_tags": {"bridge": "yes", "covered": "yes", "highway": "footway", "layer": "1", "name": "Canopy Walk", "name:en": "Canopy Walk", "stroller": "yes", "wheelchair": "yes"}, "length_m": 361.6, "status": "existing_explicit", "status_reason": "covered=yes is an explicit built-cover value", "covered": "yes", "coverage_source": "osm_existing", "coverage_confidence": "high"}, "geometry": {"type": "LineString", "coordinates": [[101.604645, 3.0653133], [101.6030618, 3.0652136], [101.601544, 3.0652241], [101.6013916, 3.0652252]]}}, {"type": "Feature", "properties": {"osm_way_id": 210994209, "osm_tags": {"covered": "no", "leisure": "swimming_pool", "name": "Sun-U Residence Swimming Pool", "name:en": "Sun-U Residence Swimming Pool", "sport": "swimming"}, "length_m": 140.98, "status": "existing_explicit", "status_reason": "covered=no is an explicit built-cover value", "covered": "no", "coverage_source": "osm_existing", "coverage_confidence": "high"}, "geometry": {"type": "LineString", "coordinates": [[101.6054816, 3.0662042], [101.6058177, 3.0664781], [101.6056906, 3.0666336], [101.6053545, 3.0663598], [101.6054816, 3.0662042]]}}, {"type": "Feature", "properties": {"osm_way_id": 210994244, "osm_tags": {"highway": "secondary_link", "lanes": "1", "oneway": "yes", "sidewalk": "both", "surface": "paving_stones"}, "length_m": 32.6, "status": "missing", "status_reason": "no covered tag and no implicit cover signal", "covered": "no", "coverage_source": "default_pending", "coverage_confidence": "low"}, "geometry": {"type": "LineString", "coordinates": [[101.6011803, 3.0652639], [101.6011032, 3.0652231], [101.6010542, 3.0651882], [101.6010197, 3.065145], [101.6009982, 3.0650911], [101.6009681, 3.0650782]]}}, {"type": "Feature", "properties": {"osm_way_id": 210994261, "osm_tags": {"highway": "footway"}, "length_m": 103.24, "status": "missing", "status_reason": "no covered tag and no implicit cover signal", "covered": "no", "coverage_source": "default_pending", "coverage_confidence": "low"}, "geometry": {"type": "LineString", "coordinates": [[101.5992572, 3.0645521], [101.5993203, 3.064552], [101.5993176, 3.0645895], [101.5997521, 3.0645895], [101.6001466, 3.064583]]}}, {"type": "Feature", "properties": {"osm_way_id": 210994295, "osm_tags": {"highway": "service", "oneway": "no", "service": "parking_aisle", "sidewalk": "right"}, "length_m": 138.07, "status": "missing", "status_reason": "no covered tag and no implicit cover signal", "covered": "no", "coverage_source": "default_pending", "coverage_confidence": "low"}, "geometry": {"type": "LineString", "coordinates": [[101.6056558, 3.0668425], [101.6050599, 3.0670109], [101.6048151, 3.0673613], [101.6047114, 3.0675277]]}}, {"type": "Feature", "properties": {"osm_way_id": 210994303, "osm_tags": {"highway": "footway"}, "length_m": 83.53, "status": "missing", "status_reason": "no covered tag and no implicit cover signal", "covered": "no", "coverage_source": "default_pending", "coverage_confidence": "low"}, "geometry": {"type": "LineString", "coordinates": [[101.5992574, 3.0645146], [101.5994571, 3.0645145], [101.5996529, 3.0644958], [101.5997253, 3.0644743], [101.5998833, 3.0643995], [101.5999784, 3.0643539]]}}, {"type": "Feature", "properties": {"osm_way_id": 210994304, "osm_tags": {"highway": "secondary_link", "lanes": "1", "oneway": "yes", "sidewalk": "both", "surface": "paving_stones"}, "length_m": 30.43, "status": "missing", "status_reason": "no covered tag and no implicit cover signal", "covered": "no", "coverage_source": "default_pending", "coverage_confidence": "low"}, "geometry": {"type": "LineString", "coordinates": [[101.6009681, 3.0650782], [101.6009375, 3.0650909], [101.6009181, 3.0651246], [101.6008846, 3.0651735], [101.6008423, 3.0652164], [101.6007765, 3.0652659]]}}, {"type": "Feature", "properties": {"osm_way_id": 211071568, "osm_tags": {"bridge": "yes", "bridge:structure": "suspension", "highway": "footway", "layer": "1", "lit": "no", "surface": "wood"}, "length_m": 386.66, "status": "implicit_review", "status_reason": "no covered tag; possibly covered: layer=1, bridge=yes", "covered": "no", "coverage_source": "default_pending", "coverage_confidence": "low"}, "geometry": {"type": "LineString", "coordinates": [[101.6081852, 3.0685368], [101.6083113, 3.0688586], [101.6073832, 3.0694826], [101.606541, 3.0700692], [101.6057337, 3.0706424]]}}, {"type": "Feature", "properties": {"osm_way_id": 221195953, "osm_tags": {"highway": "footway"}, "length_m": 15.75, "status": "missing", "status_reason": "no covered tag and no implicit cover signal", "covered": "no", "coverage_source": "default_pending", "coverage_confidence": "low"}, "geometry": {"type": "LineString", "coordinates": [[101.6096319, 3.0716192], [101.6096604, 3.0716038], [101.6096819, 3.071593], [101.6097117, 3.0715689], [101.6097498, 3.0715413]]}}, {"type": "Feature", "properties": {"osm_way_id": 221195960, "osm_tags": {"highway": "footway"}, "length_m": 3.28, "status": "missing", "status_reason": "no covered tag and no implicit cover signal", "covered": "no", "coverage_source": "default_pending", "coverage_confidence": "low"}, "geometry": {"type": "LineString", "coordinates": [[101.6098317, 3.0717383], [101.6098109, 3.0717173]]}}, {"type": "Feature", "properties": {"osm_way_id": 221195963, "osm_tags": {"bridge": "yes", "highway": "footway", "layer": "1"}, "length_m": 6.56, "status": "implicit_review", "status_reason": "no covered tag; possibly covered: layer=1, bridge=yes", "covered": "no", "coverage_source": "default_pending", "coverage_confidence": "low"}, "geometry": {"type": "LineString", "coordinates": [[101.6097498, 3.0715413], [101.6098017, 3.0715132]]}}, {"type": "Feature", "properties": {"osm_way_id": 221195964, "osm_tags": {"highway": "footway"}, "length_m": 18.12, "status": "missing", "status_reason": "no covered tag and no implicit cover signal", "covered": "no", "coverage_source": "default_pending", "coverage_confidence": "low"}, "geometry": {"type": "LineString", "coordinates": [[101.6094737, 3.071752], [101.6095152, 3.0717034], [101.6095474, 3.0716713], [101.6095742, 3.0716525], [101.6095912, 3.0716402]]}}, {"type": "Feature", "properties": {"osm_way_id": 221195967, "osm_tags": {"highway": "footway"}, "length_m": 14.18, "status": "missing", "status_reason": "no covered tag and no implicit cover signal", "covered": "no", "coverage_source": "default_pending", "coverage_confidence": "low"}, "geometry": {"type": "LineString", "coordinates": [[101.6097411, 3.0716505], [101.6096819, 3.071593], [101.6096496, 3.0715615]]}}, {"type": "Feature", "properties": {"osm_way_id": 221195969, "osm_tags": {"bridge": "yes", "highway": "footway", "layer": "1"}, "length_m": 10.73, "status": "implicit_review", "status_reason": "no covered tag; possibly covered: layer=1, bridge=yes", "covered": "no", "coverage_source": "default_pending", "coverage_confidence": "low"}, "geometry": {"type": "LineString", "coordinates": [[101.6098109, 3.0717173], [101.6097411, 3.0716505]]}}, {"type": "Feature", "properties": {"osm_way_id": 221195970, "osm_tags": {"bridge": "yes", "highway": "footway", "layer": "1"}, "length_m": 5.09, "status": "implicit_review", "status_reason": "no covered tag; possibly covered: layer=1, bridge=yes", "covered": "no", "coverage_source": "default_pending", "coverage_confidence": "low"}, "geometry": {"type": "LineString", "coordinates": [[101.6095912, 3.0716402], [101.6096319, 3.0716192]]}}, {"type": "Feature", "properties": {"osm_way_id": 221195971, "osm_tags": {"bridge": "yes", "highway": "footway", "layer": "1"}, "length_m": 4.23, "status": "implicit_review", "status_reason": "no covered tag; possibly covered: layer=1, bridge=yes", "covered": "no", "coverage_source": "default_pending", "coverage_confidence": "low"}, "geometry": {"type": "LineString", "coordinates": [[101.6096496, 3.0715615], [101.6096229, 3.0715344]]}}, {"type": "Feature", "properties": {"osm_way_id": 221195973, "osm_tags": {"highway": "footway"}, "length_m": 18.01, "status": "missing", "status_reason": "no covered tag and no implicit cover signal", "covered": "no", "coverage_source": "default_pending", "coverage_confidence": "low"}, "geometry": {"type": "LineString", "coordinates": [[101.6098017, 3.0715132], [101.6098219, 3.0715009], [101.6098464, 3.0714778], [101.6098678, 3.0714554], [101.609886, 3.0714401], [101.6099259, 3.0714099]]}}, {"type": "Feature", "properties": {"osm_way_id": 221195974, "osm_tags": {"highway": "footway"}, "length_m": 29.5, "status": "missing", "status_reason": "no covered tag and no implicit cover signal", "covered": "no", "coverage_source": "default_pending", "coverage_confidence": "low"}, "geometry": {"type": "LineString", "coordinates": [[101.6096229, 3.0715344], [101.6094347, 3.0713472]]}}, {"type": "Feature", "properties": {"osm_way_id": 221197311, "osm_tags": {"covered": "no", "leisure": "swimming_pool", "sport": "swimming"}, "length_m": 40.73, "status": "existing_explicit", "status_reason": "covered=no is an explicit built-cover value", "covered": "no", "coverage_source": "osm_existing", "coverage_confidence": "high"}, "geometry": {"type": "LineString", "coordinates": [[101.6096707, 3.0679055], [101.6096412, 3.0679136], [101.6096171, 3.0678948], [101.6095956, 3.0678734], [101.6095612, 3.0678594], [101.60955, 3.0678305], [101.6095688, 3.0678037], [101.6095983, 3.0677984], [101.6096198, 3.0678198], [101.6096443, 3.0678487], [101.6096681, 3.067868], [101.6096815, 3.0678814], [101.6096707, 3.0679055]]}}, {"type": "Feature", "properties": {"osm_way_id": 221197312, "osm_tags": {"covered": "no", "leisure": "swimming_pool", "sport": "swimming"}, "length_m": 112.61, "status": "existing_explicit", "status_reason": "covered=no is an explicit built-cover value", "covered": "no", "coverage_source": "osm_existing", "coverage_confidence": "high"}, "geometry": {"type": "LineString", "coordinates": [[101.6098478, 3.0678948], [101.6098773, 3.0679109], [101.609888, 3.0679377], [101.6098665, 3.0679591], [101.6098531, 3.0679859], [101.6098531, 3.0681251], [101.6097458, 3.0681734], [101.609719, 3.068168], [101.6096872, 3.0681701], [101.6096627, 3.0681948], [101.6096359, 3.0682082], [101.6096121, 3.0682023], [101.6095907, 3.0681594], [101.6096282, 3.0681273], [101.6096278, 3.0679885], [101.6097324, 3.067935], [101.6097592, 3.067943], [101.6097838, 3.0679344], [101.6098048, 3.0679189], [101.6098183, 3.0679028], [101.6098478, 3.0678948]]}}, {"type": "Feature", "properties": {"osm_way_id": 221197315, "osm_tags": {"covered": "no", "leisure": "swimming_pool", "sport": "swimming"}, "length_m": 21.27, "status": "existing_explicit", "status_reason": "covered=no is an explicit built-cover value", "covered": "no", "coverage_source": "osm_existing", "coverage_confidence": "high"}, "geometry": {"type": "LineString", "coordinates": [[101.6095956, 3.0679591], [101.6096144, 3.067951], [101.6096171, 3.0679323], [101.6096037, 3.0679136], [101.6095829, 3.067901], [101.6095585, 3.0679103], [101.6095558, 3.0679371], [101.6095692, 3.0679585], [101.6095956, 3.0679591]]}}, {"type": "Feature", "properties": {"osm_way_id": 263461643, "osm_tags": {"covered": "yes", "highway": "steps"}, "length_m": 11.45, "status": "existing_explicit", "status_reason": "covered=yes is an explicit built-cover value", "covered": "yes", "coverage_source": "osm_existing", "coverage_confidence": "high"}, "geometry": {"type": "LineString", "coordinates": [[101.6036117, 3.0731321], [101.6035096, 3.0731174]]}}, {"type": "Feature", "properties": {"osm_way_id": 263461645, "osm_tags": {"highway": "steps"}, "length_m": 12.85, "status": "missing", "status_reason": "no covered tag and no implicit cover signal", "covered": "no", "coverage_source": "default_pending", "coverage_confidence": "low"}, "geometry": {"type": "LineString", "coordinates": [[101.6061012, 3.0736621], [101.6060552, 3.0735561]]}}, {"type": "Feature", "properties": {"osm_way_id": 263461647, "osm_tags": {"highway": "footway"}, "length_m": 54.99, "status": "missing", "status_reason": "no covered tag and no implicit cover signal", "covered": "no", "coverage_source": "default_pending", "coverage_confidence": "low"}, "geometry": {"type": "LineString", "coordinates": [[101.6086994, 3.0734799], [101.6086968, 3.0735422], [101.6086452, 3.0736535], [101.6085296, 3.0737155], [101.6084417, 3.0737885], [101.6085061, 3.0737896]]}}, {"type": "Feature", "properties": {"osm_way_id": 263461648, "osm_tags": {"bridge": "yes", "highway": "footway", "layer": "1"}, "length_m": 77.98, "status": "implicit_review", "status_reason": "no covered tag; possibly covered: layer=1, bridge=yes", "covered": "no", "coverage_source": "default_pending", "coverage_confidence": "low"}, "geometry": {"type": "LineString", "coordinates": [[101.6087412, 3.0742604], [101.608624, 3.0742595], [101.6086253, 3.0737944], [101.6085061, 3.0737896]]}}, {"type": "Feature", "properties": {"osm_way_id": 428126739, "osm_tags": {"access": "yes", "addr:city": "Petaling Jaya", "addr:place": "Bandar Sunway", "amenity": "parking", "building": "yes", "building:levels": "4", "covered": "yes", "fee": "yes", "landuse": "depot", "name": "Kompleks BRT Sunway", "name:en": "BRT Sunway Complex", "name:ms": "Kompleks BRT Sunway", "name:zh": "\u53cc\u5a01\u5feb\u6377\u5df4\u58eb\u4e2d\u5fc3", "name:zh-Hans": "\u53cc\u5a01\u5feb\u6377\u5df4\u58eb\u4e2d\u5fc3", "name:zh-Hant": "\u96d9\u5a01\u5feb\u901f\u5df4\u58eb\u4e2d\u5fc3", "park_ride": "yes", "parking": "multi-storey", "wheelchair": "yes"}, "length_m": 448.35, "status": "existing_explicit", "status_reason": "covered=yes is an explicit built-cover value", "covered": "yes", "coverage_source": "osm_existing", "coverage_confidence": "high"}, "geometry": {"type": "LineString", "coordinates": [[101.6005574, 3.0666199], [101.600554, 3.0655827], [101.6007685, 3.0655827], [101.6013857, 3.0655761], [101.6015321, 3.0655771], [101.6015373, 3.0666167], [101.6005574, 3.0666199]]}}, {"type": "Feature", "properties": {"osm_way_id": 461676067, "osm_tags": {"bicycle": "yes", "highway": "footway", "lit": "yes", "surface": "paved"}, "length_m": 1334.11, "status": "missing", "status_reason": "no covered tag and no implicit cover signal", "covered": "no", "coverage_source": "default_pending", "coverage_confidence": "low"}, "geometry": {"type": "LineString", "coordinates": [[101.6045498, 3.0738798], [101.6045563, 3.0742239], [101.6045643, 3.0747343], [101.6045718, 3.075213], [101.6045863, 3.0761351], [101.6045949, 3.0766811], [101.6046197, 3.0783097], [101.6047784, 3.0786416], [101.6048095, 3.0787065], [101.6049867, 3.0790531], [101.6052744, 3.0795517], [101.6054049, 3.0796473], [101.6060668, 3.0796828], [101.6068721, 3.0797004], [101.608227, 3.0797364], [101.6082249, 3.0783542], [101.6082243, 3.0779817], [101.6082236, 3.0775107], [101.6082229, 3.0770428], [101.6082222, 3.0765545]]}}, {"type": "Feature", "properties": {"osm_way_id": 603234065, "osm_tags": {"covered": "yes", "highway": "service"}, "length_m": 90.5, "status": "existing_explicit", "status_reason": "covered=yes is an explicit built-cover value", "covered": "yes", "coverage_source": "osm_existing", "coverage_confidence": "high"}, "geometry": {"type": "LineString", "coordinates": [[101.6020744, 3.0726197], [101.6020764, 3.0724911], [101.6020792, 3.0720848], [101.6023585, 3.0720785]]}}, {"type": "Feature", "properties": {"osm_way_id": 603234075, "osm_tags": {"highway": "path"}, "length_m": 21.2, "status": "missing", "status_reason": "no covered tag and no implicit cover signal", "covered": "no", "coverage_source": "default_pending", "coverage_confidence": "low"}, "geometry": {"type": "LineString", "coordinates": [[101.6036358, 3.072943], [101.6036117, 3.0731321]]}}, {"type": "Feature", "properties": {"osm_way_id": 603234076, "osm_tags": {"highway": "path"}, "length_m": 24.39, "status": "missing", "status_reason": "no covered tag and no implicit cover signal", "covered": "no", "coverage_source": "default_pending", "coverage_confidence": "low"}, "geometry": {"type": "LineString", "coordinates": [[101.6034936, 3.0739845], [101.6034815, 3.0737655]]}}, {"type": "Feature", "properties": {"osm_way_id": 603814878, "osm_tags": {"bridge": "yes", "covered": "yes", "highway": "footway", "layer": "1", "stroller": "yes", "wheelchair": "no"}, "length_m": 21.41, "status": "existing_explicit", "status_reason": "covered=yes is an explicit built-cover value", "covered": "yes", "coverage_source": "osm_existing", "coverage_confidence": "high"}, "geometry": {"type": "LineString", "coordinates": [[101.6090739, 3.0718352], [101.6088811, 3.0718354]]}}, {"type": "Feature", "properties": {"osm_way_id": 603814879, "osm_tags": {"handrail": "yes", "highway": "steps", "incline": "down", "indoor": "yes"}, "length_m": 39.71, "status": "implicit_review", "status_reason": "no covered tag; possibly covered: indoor=yes", "covered": "no", "coverage_source": "default_pending", "coverage_confidence": "low"}, "geometry": {"type": "LineString", "coordinates": [[101.6088811, 3.0718354], [101.6085235, 3.0718358]]}}, {"type": "Feature", "properties": {"osm_way_id": 603814881, "osm_tags": {"bridge": "yes", "covered": "yes", "highway": "footway", "layer": "1", "stroller": "yes", "wheelchair": "yes"}, "length_m": 368.66, "status": "existing_explicit", "status_reason": "covered=yes is an explicit built-cover value", "covered": "yes", "coverage_source": "osm_existing", "coverage_confidence": "high"}, "geometry": {"type": "LineString", "coordinates": [[101.6105938, 3.0705864], [101.6099729, 3.0705824], [101.609889, 3.0706102], [101.6098129, 3.070655], [101.6097502, 3.0707223], [101.6096953, 3.0707941], [101.6091267, 3.0716887], [101.6091029, 3.0717372], [101.6090843, 3.071783], [101.6090739, 3.0718352], [101.6090706, 3.0718831], [101.6090652, 3.0729555]]}}, {"type": "Feature", "properties": {"osm_way_id": 603815893, "osm_tags": {"bridge": "yes", "covered": "yes", "highway": "footway", "layer": "1", "stroller": "yes", "surface": "paved", "wheelchair": "yes"}, "length_m": 27.76, "status": "existing_explicit", "status_reason": "covered=yes is an explicit built-cover value", "covered": "yes", "coverage_source": "osm_existing", "coverage_confidence": "high"}, "geometry": {"type": "LineString", "coordinates": [[101.6090652, 3.0729555], [101.6088152, 3.07296]]}}, {"type": "Feature", "properties": {"osm_way_id": 603815894, "osm_tags": {"conveying": "yes", "handrail": "yes", "highway": "steps", "incline": "up", "indoor": "yes"}, "length_m": 6.48, "status": "implicit_review", "status_reason": "no covered tag; possibly covered: indoor=yes", "covered": "no", "coverage_source": "default_pending", "coverage_confidence": "low"}, "geometry": {"type": "LineString", "coordinates": [[101.6088152, 3.07296], [101.608814, 3.0729017]]}}, {"type": "Feature", "properties": {"osm_way_id": 603815895, "osm_tags": {"highway": "footway"}, "length_m": 18.83, "status": "missing", "status_reason": "no covered tag and no implicit cover signal", "covered": "no", "coverage_source": "default_pending", "coverage_confidence": "low"}, "geometry": {"type": "LineString", "coordinates": [[101.608814, 3.0729017], [101.6089836, 3.0729029]]}}, {"type": "Feature", "properties": {"osm_way_id": 603816937, "osm_tags": {"highway": "footway"}, "length_m": 10.11, "status": "missing", "status_reason": "no covered tag and no implicit cover signal", "covered": "no", "coverage_source": "default_pending", "coverage_confidence": "low"}, "geometry": {"type": "LineString", "coordinates": [[101.6060848, 3.0715106], [101.6060928, 3.0716012]]}}, {"type": "Feature", "properties": {"osm_way_id": 603816938, "osm_tags": {"conveying": "yes", "handrail": "yes", "highway": "steps", "incline": "down", "ramp": "no", "surface": "metal"}, "length_m": 20.29, "status": "missing", "status_reason": "no covered tag and no implicit cover signal", "covered": "no", "coverage_source": "default_pending", "coverage_confidence": "low"}, "geometry": {"type": "LineString", "coordinates": [[101.6013916, 3.0652252], [101.6013539, 3.0652109], [101.6013355, 3.0651837], [101.6012858, 3.0650862]]}}, {"type": "Feature", "properties": {"osm_way_id": 764530864, "osm_tags": {"highway": "footway", "surface": "metal"}, "length_m": 37.1, "status": "missing", "status_reason": "no covered tag and no implicit cover signal", "covered": "no", "coverage_source": "default_pending", "coverage_confidence": "low"}, "geometry": {"type": "LineString", "coordinates": [[101.6012858, 3.0650862], [101.6012011, 3.0650329], [101.6009672, 3.0650258]]}}, {"type": "Feature", "properties": {"osm_way_id": 764530865, "osm_tags": {"bridge": "yes", "highway": "footway", "layer": "1", "tunnel": "building_passage"}, "length_m": 136.58, "status": "implicit_review", "status_reason": "no covered tag; possibly covered: tunnel=building_passage, layer=1, bridge=yes", "covered": "no", "coverage_source": "default_pending", "coverage_confidence": "low"}, "geometry": {"type": "LineString", "coordinates": [[101.6091655, 3.0644289], [101.6091922, 3.0648425], [101.6086683, 3.0649206], [101.6086624, 3.0652054]]}}, {"type": "Feature", "properties": {"osm_way_id": 764530866, "osm_tags": {"bridge": "yes", "highway": "footway", "layer": "1"}, "length_m": 96.28, "status": "implicit_review", "status_reason": "no covered tag; possibly covered: layer=1, bridge=yes", "covered": "no", "coverage_source": "default_pending", "coverage_confidence": "low"}, "geometry": {"type": "LineString", "coordinates": [[101.6100814, 3.0659365], [101.6099415, 3.0659109], [101.6099282, 3.0656864], [101.6099633, 3.0651887]]}}, {"type": "Feature", "properties": {"osm_way_id": 775140679, "osm_tags": {"highway": "footway", "layer": "-1"}, "length_m": 122.99, "status": "missing", "status_reason": "no covered tag and no implicit cover signal", "covered": "no", "coverage_source": "default_pending", "coverage_confidence": "low"}, "geometry": {"type": "LineString", "coordinates": [[101.5999784, 3.0643539], [101.6001026, 3.064267], [101.6002386, 3.064112], [101.6003098, 3.0640124], [101.6003932, 3.063882], [101.6004656, 3.0636637], [101.6004951, 3.063424]]}}, {"type": "Feature", "properties": {"osm_way_id": 775140680, "osm_tags": {"highway": "footway", "layer": "2"}, "length_m": 55.94, "status": "implicit_review", "status_reason": "no covered tag; possibly covered: layer=2", "covered": "no", "coverage_source": "default_pending", "coverage_confidence": "low"}, "geometry": {"type": "LineString", "coordinates": [[101.6007224, 3.0632304], [101.6007209, 3.0631996], [101.6003494, 3.0629854], [101.600347, 3.0629416]]}}, {"type": "Feature", "properties": {"osm_way_id": 776301354, "osm_tags": {"handrail": "yes", "highway": "steps", "incline": "up"}, "length_m": 29.32, "status": "missing", "status_reason": "no covered tag and no implicit cover signal", "covered": "no", "coverage_source": "default_pending", "coverage_confidence": "low"}, "geometry": {"type": "LineString", "coordinates": [[101.6007042, 3.073232], [101.6007044, 3.0733513], [101.6005598, 3.0733516]]}}, {"type": "Feature", "properties": {"osm_way_id": 776301355, "osm_tags": {"highway": "steps"}, "length_m": 13.32, "status": "missing", "status_reason": "no covered tag and no implicit cover signal", "covered": "no", "coverage_source": "default_pending", "coverage_confidence": "low"}, "geometry": {"type": "LineString", "coordinates": [[101.6006787, 3.0729033], [101.600559, 3.0729113]]}}, {"type": "Feature", "properties": {"osm_way_id": 776301356, "osm_tags": {"bridge": "yes", "highway": "footway", "layer": "1"}, "length_m": 48.96, "status": "implicit_review", "status_reason": "no covered tag; possibly covered: layer=1, bridge=yes", "covered": "no", "coverage_source": "default_pending", "coverage_confidence": "low"}, "geometry": {"type": "LineString", "coordinates": [[101.6005598, 3.0733516], [101.600559, 3.0729113]]}}, {"type": "Feature", "properties": {"osm_way_id": 777826792, "osm_tags": {"highway": "footway"}, "length_m": 85.25, "status": "missing", "status_reason": "no covered tag and no implicit cover signal", "covered": "no", "coverage_source": "default_pending", "coverage_confidence": "low"}, "geometry": {"type": "LineString", "coordinates": [[101.6086609, 3.074799], [101.608664, 3.0753692], [101.6086651, 3.0755657]]}}, {"type": "Feature", "properties": {"osm_way_id": 820509852, "osm_tags": {"bridge": "yes", "highway": "footway", "layer": "1"}, "length_m": 553.45, "status": "implicit_review", "status_reason": "no covered tag; possibly covered: layer=1, bridge=yes", "covered": "no", "coverage_source": "default_pending", "coverage_confidence": "low"}, "geometry": {"type": "LineString", "coordinates": [[101.6102409, 3.0661404], [101.6099001, 3.0660956], [101.6089014, 3.0661205], [101.6085335, 3.0661015], [101.6085228, 3.0662772], [101.608015, 3.0662978], [101.60695, 3.0663124], [101.6064987, 3.0663197], [101.6061275, 3.0663338], [101.6060808, 3.0663602], [101.6058573, 3.0665954], [101.6058172, 3.0666778], [101.6056558, 3.0668425]]}}, {"type": "Feature", "properties": {"osm_way_id": 919064543, "osm_tags": {"covered": "yes", "highway": "service", "oneway": "yes"}, "length_m": 35.12, "status": "existing_explicit", "status_reason": "covered=yes is an explicit built-cover value", "covered": "yes", "coverage_source": "osm_existing", "coverage_confidence": "high"}, "geometry": {"type": "LineString", "coordinates": [[101.609137, 3.0658723], [101.6091806, 3.0658923], [101.6094489, 3.0658891]]}}, {"type": "Feature", "properties": {"osm_way_id": 921167830, "osm_tags": {"highway": "footway"}, "length_m": 110.27, "status": "missing", "status_reason": "no covered tag and no implicit cover signal", "covered": "no", "coverage_source": "default_pending", "coverage_confidence": "low"}, "geometry": {"type": "LineString", "coordinates": [[101.6078281, 3.0709703], [101.6077809, 3.0708701], [101.6077758, 3.0707699], [101.6077819, 3.0707469], [101.6077986, 3.0706842], [101.6078469, 3.0706066], [101.6079569, 3.0705021], [101.6081909, 3.070258], [101.6081983, 3.0702503], [101.6082427, 3.0701602]]}}, {"type": "Feature", "properties": {"osm_way_id": 921167831, "osm_tags": {"highway": "footway"}, "length_m": 539.17, "status": "missing", "status_reason": "no covered tag and no implicit cover signal", "covered": "no", "coverage_source": "default_pending", "coverage_confidence": "low"}, "geometry": {"type": "LineString", "coordinates": [[101.6060606, 3.0691161], [101.6061987, 3.0686179], [101.6062658, 3.0683822], [101.6063194, 3.0682617], [101.6063918, 3.0681693], [101.6064481, 3.0681371], [101.6066158, 3.0680648], [101.6067418, 3.0680353], [101.6068263, 3.0680273], [101.6068853, 3.0680353], [101.607167, 3.0681733], [101.6074017, 3.0682965], [101.6075586, 3.0683835], [101.6076404, 3.0684076], [101.6077678, 3.0684277], [101.6080226, 3.0684759], [101.6081852, 3.0685368], [101.6084504, 3.0686032], [101.608492, 3.0686527], [101.6085416, 3.0687304], [101.6085684, 3.0688174], [101.6085698, 3.0689406], [101.608559, 3.0691174], [101.6085134, 3.0693598], [101.6083391, 3.0699289], [101.6083142, 3.0699887], [101.6082427, 3.0701602]]}}, {"type": "Feature", "properties": {"osm_way_id": 930746843, "osm_tags": {"highway": "footway"}, "length_m": 695.38, "status": "missing", "status_reason": "no covered tag and no implicit cover signal", "covered": "no", "coverage_source": "default_pending", "coverage_confidence": "low"}, "geometry": {"type": "LineString", "coordinates": [[101.6045296, 3.064059], [101.6046115, 3.0639748], [101.6046779, 3.0638986], [101.6047356, 3.0638062], [101.604757, 3.0637232], [101.6047423, 3.0635357], [101.6047315, 3.0634406], [101.6047771, 3.0632919], [101.6048128, 3.0632216], [101.6048683, 3.0631125], [101.6048777, 3.0630295], [101.6048791, 3.0628473], [101.6049018, 3.0627737], [101.6049689, 3.0626826], [101.6050038, 3.06255], [101.6050521, 3.0621791], [101.6050521, 3.0620237], [101.6050319, 3.0619166], [101.6049676, 3.0618349], [101.6048294, 3.0614398], [101.604761, 3.0613394], [101.6046605, 3.0612336], [101.6046178, 3.0612117], [101.604466, 3.0611466], [101.6043359, 3.0611211], [101.6041441, 3.0611278], [101.6040154, 3.061164], [101.6038893, 3.0611894], [101.6037498, 3.0611988], [101.6034602, 3.0611948], [101.6032831, 3.0611961], [101.6029371, 3.0612149], [101.6026823, 3.0612443], [101.6024852, 3.0613006], [101.602328, 3.0613519], [101.6022223, 3.0613702], [101.6020746, 3.061456], [101.6019647, 3.0615432], [101.6018472, 3.0616342], [101.6018153, 3.0618682]]}}, {"type": "Feature", "properties": {"osm_way_id": 931278406, "osm_tags": {"highway": "footway"}, "length_m": 85.25, "status": "missing", "status_reason": "no covered tag and no implicit cover signal", "covered": "no", "coverage_source": "default_pending", "coverage_confidence": "low"}, "geometry": {"type": "LineString", "coordinates": [[101.6077169, 3.0755709], [101.6077141, 3.0750628], [101.6077127, 3.0748042]]}}, {"type": "Feature", "properties": {"osm_way_id": 991986584, "osm_tags": {"highway": "living_street", "layer": "0", "oneway": "yes"}, "length_m": 522.56, "status": "missing", "status_reason": "no covered tag and no implicit cover signal", "covered": "no", "coverage_source": "default_pending", "coverage_confidence": "low"}, "geometry": {"type": "LineString", "coordinates": [[101.6093815, 3.0634021], [101.6093705, 3.0642442], [101.6094134, 3.0642872], [101.6101398, 3.0642892], [101.6101963, 3.064247], [101.6101999, 3.0627661], [101.6100765, 3.0626432], [101.6099357, 3.0625953], [101.609511, 3.0626023], [101.6093906, 3.0626978], [101.6093826, 3.0633174]]}}, {"type": "Feature", "properties": {"osm_way_id": 992117732, "osm_tags": {"highway": "living_street", "oneway": "yes"}, "length_m": 9.42, "status": "missing", "status_reason": "no covered tag and no implicit cover signal", "covered": "no", "coverage_source": "default_pending", "coverage_confidence": "low"}, "geometry": {"type": "LineString", "coordinates": [[101.6093826, 3.0633174], [101.6093815, 3.0634021]]}}, {"type": "Feature", "properties": {"osm_way_id": 999073853, "osm_tags": {"footway": "sidewalk", "highway": "footway", "lit": "yes", "name": "Avenue of Achievements", "name:en": "Avenue of Achievements", "surface": "paving_stones"}, "length_m": 30.63, "status": "missing", "status_reason": "no covered tag and no implicit cover signal", "covered": "no", "coverage_source": "default_pending", "coverage_confidence": "low"}, "geometry": {"type": "LineString", "coordinates": [[101.603908, 3.0677719], [101.6039079, 3.0677033], [101.6039077, 3.0674964]]}}, {"type": "Feature", "properties": {"osm_way_id": 999209165, "osm_tags": {"bridge": "yes", "highway": "footway", "layer": "1", "lit": "yes", "name": "Sunway Medical BRT - Taylor's University Skyway", "name:en": "Sunway Medical BRT - Taylor's University Skyway", "surface": "concrete"}, "length_m": 217.79, "status": "implicit_review", "status_reason": "no covered tag; possibly covered: layer=1, bridge=yes", "covered": "no", "coverage_source": "default_pending", "coverage_confidence": "low"}, "geometry": {"type": "LineString", "coordinates": [[101.6086382, 3.0656479], [101.6098117, 3.0656523], [101.6098962, 3.0656864], [101.6099282, 3.0656864], [101.610593, 3.0656864]]}}, {"type": "Feature", "properties": {"osm_way_id": 1063221996, "osm_tags": {"bridge": "yes", "highway": "footway", "layer": "1"}, "length_m": 53.51, "status": "implicit_review", "status_reason": "no covered tag; possibly covered: layer=1, bridge=yes", "covered": "no", "coverage_source": "default_pending", "coverage_confidence": "low"}, "geometry": {"type": "LineString", "coordinates": [[101.6086382, 3.0656479], [101.6085628, 3.0657421], [101.6085335, 3.0661015]]}}, {"type": "Feature", "properties": {"osm_way_id": 1063221997, "osm_tags": {"conveying": "yes", "highway": "steps"}, "length_m": 14.82, "status": "missing", "status_reason": "no covered tag and no implicit cover signal", "covered": "no", "coverage_source": "default_pending", "coverage_confidence": "low"}, "geometry": {"type": "LineString", "coordinates": [[101.6085067, 3.0656132], [101.6086402, 3.065615]]}}, {"type": "Feature", "properties": {"osm_way_id": 1063221998, "osm_tags": {"highway": "footway"}, "length_m": 9.31, "status": "missing", "status_reason": "no covered tag and no implicit cover signal", "covered": "no", "coverage_source": "default_pending", "coverage_confidence": "low"}, "geometry": {"type": "LineString", "coordinates": [[101.6085067, 3.0656132], [101.6085087, 3.0655295]]}}, {"type": "Feature", "properties": {"osm_way_id": 1073608495, "osm_tags": {"bridge": "yes", "covered": "yes", "highway": "footway", "layer": "1", "stroller": "yes", "wheelchair": "yes"}, "length_m": 35.11, "status": "existing_explicit", "status_reason": "covered=yes is an explicit built-cover value", "covered": "yes", "coverage_source": "osm_existing", "coverage_confidence": "high"}, "geometry": {"type": "LineString", "coordinates": [[101.609889, 3.0706102], [101.6096952, 3.0703607]]}}, {"type": "Feature", "properties": {"osm_way_id": 1120344214, "osm_tags": {"bridge": "yes", "covered": "yes", "highway": "footway", "layer": "1"}, "length_m": 30.38, "status": "existing_explicit", "status_reason": "covered=yes is an explicit built-cover value", "covered": "yes", "coverage_source": "osm_existing", "coverage_confidence": "high"}, "geometry": {"type": "LineString", "coordinates": [[101.604529, 3.0676723], [101.6047975, 3.0676197]]}}, {"type": "Feature", "properties": {"osm_way_id": 1120344215, "osm_tags": {"bridge": "yes", "covered": "yes", "foot": "private", "highway": "footway", "layer": "1", "surface": "metal"}, "length_m": 25.97, "status": "existing_explicit", "status_reason": "covered=yes is an explicit built-cover value", "covered": "yes", "coverage_source": "osm_existing", "coverage_confidence": "high"}, "geometry": {"type": "LineString", "coordinates": [[101.6045116, 3.0670249], [101.6042777, 3.0670268]]}}, {"type": "Feature", "properties": {"osm_way_id": 1120344216, "osm_tags": {"access": "no", "bicycle": "no", "bridge": "yes", "covered": "yes", "foot": "designated", "highway": "footway", "horse": "no", "layer": "1", "name": "Canopy Walk exit to sun u"}, "length_m": 4.23, "status": "existing_explicit", "status_reason": "covered=yes is an explicit built-cover value", "covered": "yes", "coverage_source": "osm_existing", "coverage_confidence": "high"}, "geometry": {"type": "LineString", "coordinates": [[101.604499, 3.0660483], [101.604537, 3.0660512]]}}, {"type": "Feature", "properties": {"osm_way_id": 1120344217, "osm_tags": {"highway": "steps"}, "length_m": 9.07, "status": "missing", "status_reason": "no covered tag and no implicit cover signal", "covered": "no", "coverage_source": "default_pending", "coverage_confidence": "low"}, "geometry": {"type": "LineString", "coordinates": [[101.6045643, 3.0677322], [101.6044842, 3.0677162]]}}, {"type": "Feature", "properties": {"osm_way_id": 1230756957, "osm_tags": {"highway": "footway", "level": "1"}, "length_m": 33.39, "status": "missing", "status_reason": "no covered tag and no implicit cover signal", "covered": "no", "coverage_source": "default_pending", "coverage_confidence": "low"}, "geometry": {"type": "LineString", "coordinates": [[101.6087636, 3.0672312], [101.6088132, 3.0672271], [101.6090633, 3.0672064]]}}, {"type": "Feature", "properties": {"osm_way_id": 1230756958, "osm_tags": {"highway": "footway", "layer": "1"}, "length_m": 37.99, "status": "implicit_review", "status_reason": "no covered tag; possibly covered: layer=1", "covered": "no", "coverage_source": "default_pending", "coverage_confidence": "low"}, "geometry": {"type": "LineString", "coordinates": [[101.6092604, 3.0681559], [101.6095018, 3.0681398], [101.609539, 3.0681278], [101.6095971, 3.068109]]}}, {"type": "Feature", "properties": {"osm_way_id": 1230756959, "osm_tags": {"bridge": "yes", "highway": "footway", "layer": "1", "name": "Eco Walk", "name:en": "Eco Walk", "surface": "metal"}, "length_m": 533.4, "status": "implicit_review", "status_reason": "no covered tag; possibly covered: layer=1, bridge=yes", "covered": "no", "coverage_source": "default_pending", "coverage_confidence": "low"}, "geometry": {"type": "LineString", "coordinates": [[101.608015, 3.0662978], [101.6080167, 3.0664488], [101.6080203, 3.0668332], [101.6083431, 3.0669412], [101.6085604, 3.0669868], [101.6087294, 3.0671334], [101.6087636, 3.0672312], [101.6088185, 3.0674709], [101.608838, 3.0677293], [101.6089533, 3.0678666], [101.6092028, 3.0680233], [101.6092604, 3.0681559], [101.6092846, 3.068571], [101.609412, 3.068567], [101.6094978, 3.0687076], [101.6094603, 3.0688295], [101.6093436, 3.0689647], [101.6093731, 3.0691107], [101.6095622, 3.0691723], [101.6096534, 3.0692674], [101.609652, 3.0693866], [101.6100115, 3.0693959], [101.6101308, 3.0694709], [101.6102686, 3.0694723]]}}, {"type": "Feature", "properties": {"osm_way_id": 1232335176, "osm_tags": {"bridge": "yes", "highway": "footway", "level": "1"}, "length_m": 25.65, "status": "implicit_review", "status_reason": "no covered tag; possibly covered: bridge=yes", "covered": "no", "coverage_source": "default_pending", "coverage_confidence": "low"}, "geometry": {"type": "LineString", "coordinates": [[101.6047114, 3.0675277], [101.6045189, 3.0676552]]}}, {"type": "Feature", "properties": {"osm_way_id": 1232335177, "osm_tags": {"highway": "footway", "indoor": "yes"}, "length_m": 38.27, "status": "implicit_review", "status_reason": "no covered tag; possibly covered: indoor=yes", "covered": "no", "coverage_source": "default_pending", "coverage_confidence": "low"}, "geometry": {"type": "LineString", "coordinates": [[101.6091189, 3.0637765], [101.6091117, 3.0634324]]}}, {"type": "Feature", "properties": {"osm_way_id": 1232335178, "osm_tags": {"conveying": "yes", "highway": "steps", "incline": "down"}, "length_m": 34.24, "status": "missing", "status_reason": "no covered tag and no implicit cover signal", "covered": "no", "coverage_source": "default_pending", "coverage_confidence": "low"}, "geometry": {"type": "LineString", "coordinates": [[101.6091125, 3.0640844], [101.6091189, 3.0637765]]}}, {"type": "Feature", "properties": {"osm_way_id": 1232335179, "osm_tags": {"bridge": "yes", "highway": "footway", "indoor": "yes", "layer": "1"}, "length_m": 38.76, "status": "implicit_review", "status_reason": "no covered tag; possibly covered: indoor=yes, layer=1, bridge=yes", "covered": "no", "coverage_source": "default_pending", "coverage_confidence": "low"}, "geometry": {"type": "LineString", "coordinates": [[101.6091655, 3.0644289], [101.6091125, 3.0640844]]}}, {"type": "Feature", "properties": {"osm_way_id": 1234667533, "osm_tags": {"highway": "footway"}, "length_m": 90.93, "status": "missing", "status_reason": "no covered tag and no implicit cover signal", "covered": "no", "coverage_source": "default_pending", "coverage_confidence": "low"}, "geometry": {"type": "LineString", "coordinates": [[101.6042885, 3.0683626], [101.6034697, 3.0683753]]}}, {"type": "Feature", "properties": {"osm_way_id": 1234667534, "osm_tags": {"highway": "footway", "layer": "1"}, "length_m": 45.19, "status": "implicit_review", "status_reason": "no covered tag; possibly covered: layer=1", "covered": "no", "coverage_source": "default_pending", "coverage_confidence": "low"}, "geometry": {"type": "LineString", "coordinates": [[101.6046954, 3.0683563], [101.604474, 3.0683597], [101.6042885, 3.0683626]]}}, {"type": "Feature", "properties": {"osm_way_id": 1234667535, "osm_tags": {"highway": "footway"}, "length_m": 27.13, "status": "missing", "status_reason": "no covered tag and no implicit cover signal", "covered": "no", "coverage_source": "default_pending", "coverage_confidence": "low"}, "geometry": {"type": "LineString", "coordinates": [[101.6048128, 3.0632216], [101.6050516, 3.0631698]]}}, {"type": "Feature", "properties": {"osm_way_id": 1234675857, "osm_tags": {"covered": "yes", "handrail": "yes", "highway": "steps", "incline": "down"}, "length_m": 11.15, "status": "existing_explicit", "status_reason": "covered=yes is an explicit built-cover value", "covered": "yes", "coverage_source": "osm_existing", "coverage_confidence": "high"}, "geometry": {"type": "LineString", "coordinates": [[101.6033823, 3.0737502], [101.6034815, 3.0737655]]}}, {"type": "Feature", "properties": {"osm_way_id": 1234675858, "osm_tags": {"bridge": "yes", "covered": "yes", "highway": "footway", "layer": "1"}, "length_m": 71.77, "status": "existing_explicit", "status_reason": "covered=yes is an explicit built-cover value", "covered": "yes", "coverage_source": "osm_existing", "coverage_confidence": "high"}, "geometry": {"type": "LineString", "coordinates": [[101.6035096, 3.0731174], [101.6033823, 3.0737502]]}}, {"type": "Feature", "properties": {"osm_way_id": 1249942558, "osm_tags": {"highway": "footway"}, "length_m": 92.59, "status": "missing", "status_reason": "no covered tag and no implicit cover signal", "covered": "no", "coverage_source": "default_pending", "coverage_confidence": "low"}, "geometry": {"type": "LineString", "coordinates": [[101.6064722, 3.0673821], [101.6066467, 3.0679249], [101.6068853, 3.0680353]]}}, {"type": "Feature", "properties": {"osm_way_id": 1277836491, "osm_tags": {"covered": "yes", "highway": "footway"}, "length_m": 127.58, "status": "existing_explicit", "status_reason": "covered=yes is an explicit built-cover value", "covered": "yes", "coverage_source": "osm_existing", "coverage_confidence": "high"}, "geometry": {"type": "LineString", "coordinates": [[101.5985056, 3.0727532], [101.5996543, 3.0727273]]}}, {"type": "Feature", "properties": {"osm_way_id": 1303647076, "osm_tags": {"highway": "corridor", "indoor": "yes"}, "length_m": 319.34, "status": "implicit_review", "status_reason": "no covered tag; possibly covered: indoor=yes, highway=corridor", "covered": "no", "coverage_source": "default_pending", "coverage_confidence": "low"}, "geometry": {"type": "LineString", "coordinates": [[101.6088152, 3.07296], [101.6087151, 3.0729589], [101.6087121, 3.0730928], [101.6076459, 3.0730746], [101.6075852, 3.0730735], [101.6066568, 3.0730577], [101.6060707, 3.0730476]]}}, {"type": "Feature", "properties": {"osm_way_id": 1303647077, "osm_tags": {"highway": "corridor", "indoor": "yes"}, "length_m": 232.2, "status": "implicit_review", "status_reason": "no covered tag; possibly covered: indoor=yes, highway=corridor", "covered": "yes", "coverage_source": "boundary_inference", "coverage_confidence": "medium", "coverage_review_id": "BOUNDARY-BULK"}, "geometry": {"type": "LineString", "coordinates": [[101.6060707, 3.0730476], [101.6059252, 3.0730476], [101.605484, 3.0730475], [101.6054764, 3.0723818], [101.6054738, 3.0721496], [101.6058854, 3.0721449], [101.606079, 3.0721427]]}}, {"type": "Feature", "properties": {"osm_way_id": 1303647078, "osm_tags": {"highway": "corridor", "indoor": "yes"}, "length_m": 60.23, "status": "implicit_review", "status_reason": "no covered tag; possibly covered: indoor=yes, highway=corridor", "covered": "yes", "coverage_source": "boundary_inference", "coverage_confidence": "medium", "coverage_review_id": "BOUNDARY-BULK"}, "geometry": {"type": "LineString", "coordinates": [[101.6060928, 3.0716012], [101.6060925, 3.0716138], [101.6060816, 3.0720421], [101.606079, 3.0721427]]}}, {"type": "Feature", "properties": {"osm_way_id": 1303647079, "osm_tags": {"highway": "corridor", "indoor": "yes", "layer": "-1"}, "length_m": 262.16, "status": "implicit_review", "status_reason": "no covered tag; possibly covered: indoor=yes, highway=corridor", "covered": "no", "coverage_source": "default_pending", "coverage_confidence": "low"}, "geometry": {"type": "LineString", "coordinates": [[101.6060816, 3.0720421], [101.6072307, 3.0720477], [101.6072622, 3.0723057], [101.6072713, 3.0723806], [101.6076465, 3.0723686], [101.6078844, 3.0723611], [101.6081471, 3.0723582]]}}, {"type": "Feature", "properties": {"osm_way_id": 1303647080, "osm_tags": {"highway": "corridor", "indoor": "yes"}, "length_m": 186.15, "status": "implicit_review", "status_reason": "no covered tag; possibly covered: indoor=yes, highway=corridor", "covered": "no", "coverage_source": "default_pending", "coverage_confidence": "low"}, "geometry": {"type": "LineString", "coordinates": [[101.6087151, 3.0729589], [101.6087084, 3.0727545], [101.6081436, 3.072767], [101.607647, 3.072778], [101.6076465, 3.0723686]]}}, {"type": "Feature", "properties": {"osm_way_id": 1303647081, "osm_tags": {"highway": "corridor", "indoor": "yes"}, "length_m": 45.46, "status": "implicit_review", "status_reason": "no covered tag; possibly covered: indoor=yes, highway=corridor", "covered": "no", "coverage_source": "default_pending", "coverage_confidence": "low"}, "geometry": {"type": "LineString", "coordinates": [[101.6081471, 3.0723582], [101.6081436, 3.072767]]}}, {"type": "Feature", "properties": {"osm_way_id": 1303647082, "osm_tags": {"highway": "corridor", "indoor": "yes"}, "length_m": 32.98, "status": "implicit_review", "status_reason": "no covered tag; possibly covered: indoor=yes, highway=corridor", "covered": "no", "coverage_source": "default_pending", "coverage_confidence": "low"}, "geometry": {"type": "LineString", "coordinates": [[101.607647, 3.072778], [101.6076459, 3.0730746]]}}, {"type": "Feature", "properties": {"osm_way_id": 1303647083, "osm_tags": {"highway": "corridor", "indoor": "yes"}, "length_m": 100.62, "status": "implicit_review", "status_reason": "no covered tag; possibly covered: indoor=yes, highway=corridor", "covered": "yes", "coverage_source": "hermes_review", "coverage_confidence": "high", "coverage_review_id": "R002"}, "geometry": {"type": "LineString", "coordinates": [[101.6060707, 3.0730476], [101.6060774, 3.0723193], [101.606079, 3.0721427]]}}, {"type": "Feature", "properties": {"osm_way_id": 1303647084, "osm_tags": {"highway": "corridor", "indoor": "yes"}, "length_m": 18.84, "status": "implicit_review", "status_reason": "no covered tag; possibly covered: indoor=yes, highway=corridor", "covered": "no", "coverage_source": "default_pending", "coverage_confidence": "low"}, "geometry": {"type": "LineString", "coordinates": [[101.6075852, 3.0730735], [101.6075806, 3.0732429]]}}, {"type": "Feature", "properties": {"osm_way_id": 1303647085, "osm_tags": {"crossing": "uncontrolled", "crossing:markings": "yes", "footway": "crossing", "highway": "footway"}, "length_m": 20.42, "status": "missing", "status_reason": "no covered tag and no implicit cover signal", "covered": "no", "coverage_source": "default_pending", "coverage_confidence": "low"}, "geometry": {"type": "LineString", "coordinates": [[101.6075673, 3.073471], [101.6075738, 3.0732875]]}}, {"type": "Feature", "properties": {"osm_way_id": 1303647086, "osm_tags": {"highway": "corridor", "indoor": "yes"}, "length_m": 5.02, "status": "implicit_review", "status_reason": "no covered tag; possibly covered: indoor=yes, highway=corridor", "covered": "no", "coverage_source": "default_pending", "coverage_confidence": "low"}, "geometry": {"type": "LineString", "coordinates": [[101.6075738, 3.0732875], [101.6075806, 3.0732429]]}}, {"type": "Feature", "properties": {"osm_way_id": 1303647087, "osm_tags": {"highway": "corridor", "indoor": "yes"}, "length_m": 28.78, "status": "implicit_review", "status_reason": "no covered tag; possibly covered: indoor=yes, highway=corridor", "covered": "no", "coverage_source": "default_pending", "coverage_confidence": "low"}, "geometry": {"type": "LineString", "coordinates": [[101.6066568, 3.0730577], [101.6066528, 3.0733165]]}}, {"type": "Feature", "properties": {"osm_way_id": 1303647088, "osm_tags": {"highway": "corridor", "indoor": "yes"}, "length_m": 34.2, "status": "implicit_review", "status_reason": "no covered tag; possibly covered: indoor=yes, highway=corridor", "covered": "no", "coverage_source": "default_pending", "coverage_confidence": "low"}, "geometry": {"type": "LineString", "coordinates": [[101.605924, 3.0733552], [101.6059252, 3.0730476]]}}, {"type": "Feature", "properties": {"osm_way_id": 1303647089, "osm_tags": {"highway": "footway"}, "length_m": 121.3, "status": "missing", "status_reason": "no covered tag and no implicit cover signal", "covered": "no", "coverage_source": "default_pending", "coverage_confidence": "low"}, "geometry": {"type": "LineString", "coordinates": [[101.605238, 3.0712623], [101.6051312, 3.0713008], [101.6049929, 3.0713593], [101.6049425, 3.0713966], [101.6048807, 3.0714259], [101.6047523, 3.0714226], [101.6046043, 3.0714275], [101.6045734, 3.0714307], [101.6045718, 3.0715444], [101.6045636, 3.0716467], [101.6045766, 3.0717523], [101.6045718, 3.0718188]]}}, {"type": "Feature", "properties": {"osm_way_id": 1303647090, "osm_tags": {"highway": "footway"}, "length_m": 44.29, "status": "missing", "status_reason": "no covered tag and no implicit cover signal", "covered": "no", "coverage_source": "default_pending", "coverage_confidence": "low"}, "geometry": {"type": "LineString", "coordinates": [[101.6056023, 3.0707394], [101.6055974, 3.0707333], [101.6055112, 3.0706255], [101.6054288, 3.0705433], [101.6053347, 3.0704446]]}}, {"type": "Feature", "properties": {"osm_way_id": 1303647091, "osm_tags": {"highway": "corridor", "indoor": "yes"}, "length_m": 131.56, "status": "implicit_review", "status_reason": "no covered tag; possibly covered: indoor=yes, highway=corridor", "covered": "no", "coverage_source": "default_pending", "coverage_confidence": "low"}, "geometry": {"type": "LineString", "coordinates": [[101.6072622, 3.0723057], [101.6060774, 3.0723193]]}}, {"type": "Feature", "properties": {"osm_way_id": 1303647092, "osm_tags": {"highway": "footway"}, "length_m": 6.37, "status": "missing", "status_reason": "no covered tag and no implicit cover signal", "covered": "no", "coverage_source": "default_pending", "coverage_confidence": "low"}, "geometry": {"type": "LineString", "coordinates": [[101.605924, 3.0733552], [101.6059234, 3.0734125]]}}, {"type": "Feature", "properties": {"osm_way_id": 1303647093, "osm_tags": {"highway": "corridor", "indoor": "yes"}, "length_m": 6.88, "status": "implicit_review", "status_reason": "no covered tag; possibly covered: indoor=yes, highway=corridor", "covered": "no", "coverage_source": "default_pending", "coverage_confidence": "low"}, "geometry": {"type": "LineString", "coordinates": [[101.605406, 3.0714307], [101.6054176, 3.0713699]]}}, {"type": "Feature", "properties": {"osm_way_id": 1303647094, "osm_tags": {"highway": "footway"}, "length_m": 24.85, "status": "missing", "status_reason": "no covered tag and no implicit cover signal", "covered": "no", "coverage_source": "default_pending", "coverage_confidence": "low"}, "geometry": {"type": "LineString", "coordinates": [[101.6054176, 3.0713699], [101.6054273, 3.0713104], [101.6054146, 3.0712738], [101.6053856, 3.0712474], [101.6053181, 3.0711951]]}}, {"type": "Feature", "properties": {"osm_way_id": 1303647095, "osm_tags": {"highway": "footway"}, "length_m": 33.42, "status": "missing", "status_reason": "no covered tag and no implicit cover signal", "covered": "no", "coverage_source": "default_pending", "coverage_confidence": "low"}, "geometry": {"type": "LineString", "coordinates": [[101.605238, 3.0712623], [101.6053181, 3.0711951], [101.6054671, 3.0710674]]}}, {"type": "Feature", "properties": {"osm_way_id": 1303647096, "osm_tags": {"highway": "corridor", "indoor": "yes"}, "length_m": 13.78, "status": "implicit_review", "status_reason": "no covered tag; possibly covered: indoor=yes, highway=corridor", "covered": "no", "coverage_source": "default_pending", "coverage_confidence": "low"}, "geometry": {"type": "LineString", "coordinates": [[101.6054671, 3.0710674], [101.6055612, 3.0709866]]}}, {"type": "Feature", "properties": {"osm_way_id": 1303647097, "osm_tags": {"highway": "footway"}, "length_m": 38.04, "status": "missing", "status_reason": "no covered tag and no implicit cover signal", "covered": "no", "coverage_source": "default_pending", "coverage_confidence": "low"}, "geometry": {"type": "LineString", "coordinates": [[101.6055612, 3.0709866], [101.6056942, 3.0708707], [101.6056989, 3.070866], [101.6056023, 3.0707394]]}}, {"type": "Feature", "properties": {"osm_way_id": 1303647098, "osm_tags": {"highway": "corridor", "indoor": "yes"}, "length_m": 15.34, "status": "implicit_review", "status_reason": "no covered tag; possibly covered: indoor=yes, highway=corridor", "covered": "no", "coverage_source": "default_pending", "coverage_confidence": "low"}, "geometry": {"type": "LineString", "coordinates": [[101.6057337, 3.0706424], [101.6056182, 3.0707181]]}}, {"type": "Feature", "properties": {"osm_way_id": 1303647099, "osm_tags": {"highway": "footway"}, "length_m": 2.86, "status": "missing", "status_reason": "no covered tag and no implicit cover signal", "covered": "no", "coverage_source": "default_pending", "coverage_confidence": "low"}, "geometry": {"type": "LineString", "coordinates": [[101.6056182, 3.0707181], [101.6055974, 3.0707333]]}}, {"type": "Feature", "properties": {"osm_way_id": 1303647100, "osm_tags": {"highway": "footway"}, "length_m": 5.66, "status": "missing", "status_reason": "no covered tag and no implicit cover signal", "covered": "no", "coverage_source": "default_pending", "coverage_confidence": "low"}, "geometry": {"type": "LineString", "coordinates": [[101.605291, 3.0715587], [101.6052944, 3.0715079]]}}, {"type": "Feature", "properties": {"osm_way_id": 1303647101, "osm_tags": {"highway": "corridor", "indoor": "yes"}, "length_m": 19.85, "status": "implicit_review", "status_reason": "no covered tag; possibly covered: indoor=yes, highway=corridor", "covered": "no", "coverage_source": "default_pending", "coverage_confidence": "low"}, "geometry": {"type": "LineString", "coordinates": [[101.6052944, 3.0715079], [101.6053012, 3.0714344], [101.605406, 3.0714307]]}}, {"type": "Feature", "properties": {"osm_way_id": 1303647102, "osm_tags": {"highway": "corridor", "indoor": "yes"}, "length_m": 33.43, "status": "implicit_review", "status_reason": "no covered tag; possibly covered: indoor=yes, highway=corridor", "covered": "no", "coverage_source": "default_pending", "coverage_confidence": "low"}, "geometry": {"type": "LineString", "coordinates": [[101.6060911, 3.0704282], [101.6062009, 3.0707081]]}}, {"type": "Feature", "properties": {"osm_way_id": 1303647103, "osm_tags": {"highway": "footway"}, "length_m": 32.29, "status": "missing", "status_reason": "no covered tag and no implicit cover signal", "covered": "no", "coverage_source": "default_pending", "coverage_confidence": "low"}, "geometry": {"type": "LineString", "coordinates": [[101.6062009, 3.0707081], [101.6062402, 3.070769], [101.6063805, 3.0707926], [101.6064565, 3.0707935]]}}, {"type": "Feature", "properties": {"osm_way_id": 1303647104, "osm_tags": {"highway": "corridor", "indoor": "yes"}, "length_m": 25.88, "status": "implicit_review", "status_reason": "no covered tag; possibly covered: indoor=yes, highway=corridor", "covered": "no", "coverage_source": "default_pending", "coverage_confidence": "low"}, "geometry": {"type": "LineString", "coordinates": [[101.6064565, 3.0707935], [101.6066893, 3.070805]]}}, {"type": "Feature", "properties": {"osm_way_id": 1303647105, "osm_tags": {"highway": "footway"}, "length_m": 68.4, "status": "missing", "status_reason": "no covered tag and no implicit cover signal", "covered": "no", "coverage_source": "default_pending", "coverage_confidence": "low"}, "geometry": {"type": "LineString", "coordinates": [[101.6066893, 3.070805], [101.6067545, 3.0707813], [101.6068958, 3.0707895], [101.6069973, 3.0707936], [101.6070516, 3.0707772], [101.6071263, 3.0707783], [101.607237, 3.0707895], [101.6072974, 3.0707967]]}}, {"type": "Feature", "properties": {"osm_way_id": 1303647106, "osm_tags": {"highway": "corridor", "indoor": "yes"}, "length_m": 16.74, "status": "implicit_review", "status_reason": "no covered tag; possibly covered: indoor=yes, highway=corridor", "covered": "no", "coverage_source": "default_pending", "coverage_confidence": "low"}, "geometry": {"type": "LineString", "coordinates": [[101.6072974, 3.0707967], [101.6074475, 3.0708104]]}}, {"type": "Feature", "properties": {"osm_way_id": 1303647107, "osm_tags": {"highway": "footway"}, "length_m": 39.93, "status": "missing", "status_reason": "no covered tag and no implicit cover signal", "covered": "no", "coverage_source": "default_pending", "coverage_confidence": "low"}, "geometry": {"type": "LineString", "coordinates": [[101.6074475, 3.0708104], [101.6075272, 3.0708197], [101.6075731, 3.0708209], [101.6076126, 3.070795], [101.6076567, 3.0707569], [101.607712, 3.070741], [101.6077573, 3.0707422], [101.6077819, 3.0707469]]}}, {"type": "Feature", "properties": {"osm_way_id": 1303647108, "osm_tags": {"conveying": "yes", "highway": "steps"}, "length_m": 54.33, "status": "missing", "status_reason": "no covered tag and no implicit cover signal", "covered": "no", "coverage_source": "default_pending", "coverage_confidence": "low"}, "geometry": {"type": "LineString", "coordinates": [[101.6055112, 3.0706255], [101.6055435, 3.0705977], [101.6059423, 3.0703969]]}}, {"type": "Feature", "properties": {"osm_way_id": 1303647109, "osm_tags": {"conveying": "yes", "highway": "steps"}, "length_m": 13.15, "status": "missing", "status_reason": "no covered tag and no implicit cover signal", "covered": "no", "coverage_source": "default_pending", "coverage_confidence": "low"}, "geometry": {"type": "LineString", "coordinates": [[101.6059423, 3.0703969], [101.6060518, 3.0703519]]}}, {"type": "Feature", "properties": {"osm_way_id": 1303647110, "osm_tags": {"highway": "corridor", "indoor": "yes"}, "length_m": 9.54, "status": "implicit_review", "status_reason": "no covered tag; possibly covered: indoor=yes, highway=corridor", "covered": "no", "coverage_source": "default_pending", "coverage_confidence": "low"}, "geometry": {"type": "LineString", "coordinates": [[101.6060518, 3.0703519], [101.6060911, 3.0704282]]}}, {"type": "Feature", "properties": {"osm_way_id": 1303809993, "osm_tags": {"highway": "corridor", "indoor": "yes"}, "length_m": 55.94, "status": "implicit_review", "status_reason": "no covered tag; possibly covered: indoor=yes, highway=corridor", "covered": "no", "coverage_source": "default_pending", "coverage_confidence": "low"}, "geometry": {"type": "LineString", "coordinates": [[101.6058854, 3.0721449], [101.6058902, 3.0718576], [101.6056866, 3.0717853]]}}, {"type": "Feature", "properties": {"osm_way_id": 1303809994, "osm_tags": {"crossing": "uncontrolled", "crossing:markings": "yes", "footway": "crossing", "highway": "footway"}, "length_m": 22.84, "status": "missing", "status_reason": "no covered tag and no implicit cover signal", "covered": "no", "coverage_source": "default_pending", "coverage_confidence": "low"}, "geometry": {"type": "LineString", "coordinates": [[101.6054826, 3.0717587], [101.6056866, 3.0717853]]}}, {"type": "Feature", "properties": {"osm_way_id": 1303809995, "osm_tags": {"highway": "corridor", "indoor": "yes"}, "length_m": 47.41, "status": "implicit_review", "status_reason": "no covered tag; possibly covered: indoor=yes, highway=corridor", "covered": "no", "coverage_source": "default_pending", "coverage_confidence": "low"}, "geometry": {"type": "LineString", "coordinates": [[101.605406, 3.0714307], [101.6054523, 3.0714394], [101.605486, 3.0714497], [101.6055196, 3.0714702], [101.6055551, 3.0715], [101.6055831, 3.0715327], [101.6056289, 3.071515], [101.6056709, 3.0715075], [101.6057, 3.0715225], [101.6057161, 3.0715528], [101.6057417, 3.0716036]]}}, {"type": "Feature", "properties": {"osm_way_id": 1303809996, "osm_tags": {"highway": "corridor", "indoor": "yes"}, "length_m": 4.08, "status": "implicit_review", "status_reason": "no covered tag; possibly covered: indoor=yes, highway=corridor", "covered": "no", "coverage_source": "default_pending", "coverage_confidence": "low"}, "geometry": {"type": "LineString", "coordinates": [[101.6057417, 3.0716036], [101.6057548, 3.0716243], [101.6057651, 3.0716309]]}}, {"type": "Feature", "properties": {"osm_way_id": 1303809997, "osm_tags": {"highway": "corridor", "indoor": "yes"}, "length_m": 36.52, "status": "implicit_review", "status_reason": "no covered tag; possibly covered: indoor=yes, highway=corridor", "covered": "no", "coverage_source": "default_pending", "coverage_confidence": "low"}, "geometry": {"type": "LineString", "coordinates": [[101.6057651, 3.0716309], [101.6058023, 3.071636], [101.6058372, 3.0716308], [101.6058959, 3.0716238], [101.6059507, 3.0716192], [101.6060108, 3.0716147], [101.6060925, 3.0716138]]}}, {"type": "Feature", "properties": {"osm_way_id": 1303809998, "osm_tags": {"crossing": "uncontrolled", "crossing:markings": "yes", "footway": "crossing", "highway": "footway"}, "length_m": 10.49, "status": "missing", "status_reason": "no covered tag and no implicit cover signal", "covered": "no", "coverage_source": "default_pending", "coverage_confidence": "low"}, "geometry": {"type": "LineString", "coordinates": [[101.6089822, 3.0720705], [101.6088877, 3.0720705]]}}, {"type": "Feature", "properties": {"osm_way_id": 1303809999, "osm_tags": {"highway": "footway"}, "length_m": 13.86, "status": "missing", "status_reason": "no covered tag and no implicit cover signal", "covered": "no", "coverage_source": "default_pending", "coverage_confidence": "low"}, "geometry": {"type": "LineString", "coordinates": [[101.6088877, 3.0720705], [101.6087629, 3.0720743]]}}, {"type": "Feature", "properties": {"osm_way_id": 1303810000, "osm_tags": {"highway": "corridor", "indoor": "yes"}, "length_m": 50.73, "status": "implicit_review", "status_reason": "no covered tag; possibly covered: indoor=yes, highway=corridor", "covered": "no", "coverage_source": "default_pending", "coverage_confidence": "low"}, "geometry": {"type": "LineString", "coordinates": [[101.6087629, 3.0720743], [101.6086739, 3.0720947], [101.608659, 3.0721595], [101.6086022, 3.0721919], [101.6085387, 3.0722], [101.6084752, 3.0722054], [101.6083941, 3.0722054], [101.6083697, 3.0722095]]}}, {"type": "Feature", "properties": {"osm_way_id": 1303810001, "osm_tags": {"bridge": "yes", "highway": "footway", "layer": "1"}, "length_m": 31.7, "status": "implicit_review", "status_reason": "no covered tag; possibly covered: layer=1, bridge=yes", "covered": "no", "coverage_source": "default_pending", "coverage_confidence": "low"}, "geometry": {"type": "LineString", "coordinates": [[101.6015415, 3.0653151], [101.6015403, 3.0653705], [101.6016145, 3.0653721], [101.6016099, 3.0655276]]}}, {"type": "Feature", "properties": {"osm_way_id": 1303810002, "osm_tags": {"bridge": "yes", "highway": "footway", "layer": "1"}, "length_m": 12.51, "status": "implicit_review", "status_reason": "no covered tag; possibly covered: layer=1, bridge=yes", "covered": "no", "coverage_source": "default_pending", "coverage_confidence": "low"}, "geometry": {"type": "LineString", "coordinates": [[101.6015415, 3.0653151], [101.6015427, 3.0652655], [101.601544, 3.0652241], [101.6015441, 3.0652026]]}}, {"type": "Feature", "properties": {"osm_way_id": 1309283276, "osm_tags": {"footway": "sidewalk", "highway": "footway"}, "length_m": 116.75, "status": "missing", "status_reason": "no covered tag and no implicit cover signal", "covered": "no", "coverage_source": "default_pending", "coverage_confidence": "low"}, "geometry": {"type": "LineString", "coordinates": [[101.6051035, 3.0733828], [101.6043752, 3.0732982], [101.6040802, 3.073179]]}}, {"type": "Feature", "properties": {"osm_way_id": 1364063296, "osm_tags": {"highway": "corridor", "indoor": "yes"}, "length_m": 17.08, "status": "implicit_review", "status_reason": "no covered tag; possibly covered: indoor=yes, highway=corridor", "covered": "no", "coverage_source": "default_pending", "coverage_confidence": "low"}, "geometry": {"type": "LineString", "coordinates": [[101.6053226, 3.0723818], [101.6054764, 3.0723818]]}}, {"type": "Feature", "properties": {"osm_way_id": 1427875104, "osm_tags": {"highway": "footway"}, "length_m": 113.26, "status": "missing", "status_reason": "no covered tag and no implicit cover signal", "covered": "no", "coverage_source": "default_pending", "coverage_confidence": "low"}, "geometry": {"type": "LineString", "coordinates": [[101.6086968, 3.0735422], [101.6079511, 3.0735317], [101.6078097, 3.0735286], [101.6077284, 3.0735275], [101.6077305, 3.0734761]]}}, {"type": "Feature", "properties": {"osm_way_id": 1427916322, "osm_tags": {"highway": "footway"}, "length_m": 80.75, "status": "missing", "status_reason": "no covered tag and no implicit cover signal", "covered": "no", "coverage_source": "default_pending", "coverage_confidence": "low"}, "geometry": {"type": "LineString", "coordinates": [[101.6085296, 3.0737155], [101.6080996, 3.0736931], [101.6079686, 3.0736898], [101.6079493, 3.0736678], [101.6079511, 3.0735317]]}}, {"type": "Feature", "properties": {"osm_way_id": 1460003879, "osm_tags": {"air_conditioning": "yes", "bridge": "yes", "covered": "yes", "highway": "footway", "layer": "1", "stroller": "yes", "wheelchair": "yes"}, "length_m": 17.44, "status": "existing_explicit", "status_reason": "covered=yes is an explicit built-cover value", "covered": "yes", "coverage_source": "osm_existing", "coverage_confidence": "high"}, "geometry": {"type": "LineString", "coordinates": [[101.604645, 3.0653133], [101.6046593, 3.0651571]]}}, {"type": "Feature", "properties": {"osm_way_id": 1460003881, "osm_tags": {"highway": "footway"}, "length_m": 5.36, "status": "missing", "status_reason": "no covered tag and no implicit cover signal", "covered": "no", "coverage_source": "default_pending", "coverage_confidence": "low"}, "geometry": {"type": "LineString", "coordinates": [[101.6068594, 3.0649294], [101.6069071, 3.0649366]]}}, {"type": "Feature", "properties": {"osm_way_id": 1460003882, "osm_tags": {"bridge": "yes", "highway": "footway", "layer": "1"}, "length_m": 39.95, "status": "implicit_review", "status_reason": "no covered tag; possibly covered: layer=1, bridge=yes", "covered": "yes", "coverage_source": "hermes_review", "coverage_confidence": "high", "coverage_review_id": "R001"}, "geometry": {"type": "LineString", "coordinates": [[101.6069071, 3.0649366], [101.6072667, 3.064924]]}}, {"type": "Feature", "properties": {"osm_way_id": 1460003883, "osm_tags": {"bridge": "yes", "covered": "yes", "highway": "footway", "layer": "1", "name": "Canopy Walk", "name:en": "Canopy Walk", "stroller": "yes", "wheelchair": "yes"}, "length_m": 418.75, "status": "existing_explicit", "status_reason": "covered=yes is an explicit built-cover value", "covered": "yes", "coverage_source": "osm_existing", "coverage_confidence": "high"}, "geometry": {"type": "LineString", "coordinates": [[101.6060848, 3.0715106], [101.6060528, 3.0715074], [101.605967, 3.0714913], [101.6059211, 3.0714731], [101.6058324, 3.0714207], [101.6056878, 3.0714128], [101.6055819, 3.0713972], [101.6054525, 3.0712665], [101.6053265, 3.071141], [101.6052478, 3.071034], [101.6052144, 3.0709904], [101.6051799, 3.0709623], [101.6050511, 3.0708807], [101.6051396, 3.0697198], [101.6051448, 3.0693232], [101.6051473, 3.0691371], [101.60515, 3.0690327], [101.6051166, 3.0689182], [101.6048734, 3.0686062], [101.6047859, 3.0685087]]}}, {"type": "Feature", "properties": {"osm_way_id": 1460003884, "osm_tags": {"covered": "yes", "highway": "footway", "indoor": "yes", "name": "Canopy Walk", "name:en": "Canopy Walk", "stroller": "yes", "wheelchair": "yes"}, "length_m": 37.95, "status": "existing_explicit", "status_reason": "covered=yes is an explicit built-cover value", "covered": "yes", "coverage_source": "osm_existing", "coverage_confidence": "high"}, "geometry": {"type": "LineString", "coordinates": [[101.6046941, 3.0682878], [101.6046939, 3.0682641], [101.6046907, 3.0679465]]}}, {"type": "Feature", "properties": {"osm_way_id": 1460003885, "osm_tags": {"bridge": "yes", "covered": "yes", "highway": "steps", "incline": "up", "layer": "1", "name": "Canopy Walk", "name:en": "Canopy Walk", "stroller": "yes", "wheelchair": "yes"}, "length_m": 6.84, "status": "existing_explicit", "status_reason": "covered=yes is an explicit built-cover value", "covered": "yes", "coverage_source": "osm_existing", "coverage_confidence": "high"}, "geometry": {"type": "LineString", "coordinates": [[101.6047859, 3.0685087], [101.6047357, 3.0684731]]}}, {"type": "Feature", "properties": {"osm_way_id": 1460003886, "osm_tags": {"covered": "yes", "highway": "footway", "name": "Canopy Walk", "name:en": "Canopy Walk", "stroller": "yes", "wheelchair": "yes"}, "length_m": 24.81, "status": "existing_explicit", "status_reason": "covered=yes is an explicit built-cover value", "covered": "yes", "coverage_source": "osm_existing", "coverage_confidence": "high"}, "geometry": {"type": "LineString", "coordinates": [[101.6047357, 3.0684731], [101.6046967, 3.0684719], [101.6046954, 3.0683563], [101.6046941, 3.0682878]]}}, {"type": "Feature", "properties": {"osm_way_id": 1460003887, "osm_tags": {"bridge": "yes", "highway": "footway", "layer": "1"}, "length_m": 2.47, "status": "implicit_review", "status_reason": "no covered tag; possibly covered: layer=1, bridge=yes", "covered": "no", "coverage_source": "default_pending", "coverage_confidence": "low"}, "geometry": {"type": "LineString", "coordinates": [[101.6051448, 3.0693232], [101.6051226, 3.0693234]]}}, {"type": "Feature", "properties": {"osm_way_id": 1460003888, "osm_tags": {"bridge": "yes", "highway": "footway", "layer": "1"}, "length_m": 124.75, "status": "implicit_review", "status_reason": "no covered tag; possibly covered: layer=1, bridge=yes", "covered": "no", "coverage_source": "default_pending", "coverage_confidence": "low"}, "geometry": {"type": "LineString", "coordinates": [[101.6064987, 3.0663197], [101.6065753, 3.0659998], [101.6065658, 3.0652069]]}}, {"type": "Feature", "properties": {"osm_way_id": 1460003889, "osm_tags": {"bridge": "yes", "highway": "footway", "layer": "1"}, "length_m": 40.69, "status": "implicit_review", "status_reason": "no covered tag; possibly covered: layer=1, bridge=yes", "covered": "no", "coverage_source": "default_pending", "coverage_confidence": "low"}, "geometry": {"type": "LineString", "coordinates": [[101.6051487, 3.065185], [101.6051912, 3.0655485]]}}, {"type": "Feature", "properties": {"osm_way_id": 1460003890, "osm_tags": {"handrail": "yes", "highway": "steps", "incline": "down"}, "length_m": 14.75, "status": "missing", "status_reason": "no covered tag and no implicit cover signal", "covered": "no", "coverage_source": "default_pending", "coverage_confidence": "low"}, "geometry": {"type": "LineString", "coordinates": [[101.6051912, 3.0655485], [101.6053211, 3.0655763]]}}, {"type": "Feature", "properties": {"osm_way_id": 1460003891, "osm_tags": {"highway": "footway"}, "length_m": 105.52, "status": "missing", "status_reason": "no covered tag and no implicit cover signal", "covered": "no", "coverage_source": "default_pending", "coverage_confidence": "low"}, "geometry": {"type": "LineString", "coordinates": [[101.6045424, 3.0656598], [101.6046285, 3.0655719], [101.6048188, 3.0655416], [101.6053211, 3.0655763], [101.6054518, 3.0655853]]}}, {"type": "Feature", "properties": {"osm_way_id": 1467743200, "osm_tags": {"bridge": "yes", "highway": "pedestrian", "layer": "1"}, "length_m": 44.39, "status": "implicit_review", "status_reason": "no covered tag; possibly covered: layer=1, bridge=yes", "covered": "no", "coverage_source": "default_pending", "coverage_confidence": "low"}, "geometry": {"type": "LineString", "coordinates": [[101.6046939, 3.0682641], [101.6050936, 3.0682704]]}}, {"type": "Feature", "properties": {"osm_way_id": 1467745041, "osm_tags": {"air_conditioning": "yes", "bridge": "yes", "covered": "yes", "highway": "footway", "layer": "1", "name": "Canopy Walk", "name:en": "Canopy Walk", "stroller": "yes", "wheelchair": "yes"}, "length_m": 302.09, "status": "existing_explicit", "status_reason": "covered=yes is an explicit built-cover value", "covered": "yes", "coverage_source": "osm_existing", "coverage_confidence": "high"}, "geometry": {"type": "LineString", "coordinates": [[101.6046907, 3.0679465], [101.6045643, 3.0677322], [101.604529, 3.0676723], [101.6045189, 3.0676552], [101.6045036, 3.0675837], [101.6044953, 3.0675026], [101.6045116, 3.0670249], [101.6045053, 3.0665366], [101.604499, 3.0660483], [101.6045071, 3.0657108], [101.604522, 3.0656462], [101.6045511, 3.0655846], [101.6045845, 3.0655342], [101.6046212, 3.0654923], [101.604635, 3.0654444], [101.604645, 3.0653133]]}}, {"type": "Feature", "properties": {"osm_way_id": 1467745042, "osm_tags": {"highway": "steps"}, "length_m": 43.29, "status": "missing", "status_reason": "no covered tag and no implicit cover signal", "covered": "yes", "coverage_source": "hermes_review", "coverage_confidence": "high", "coverage_review_id": "G118"}, "geometry": {"type": "LineString", "coordinates": [[101.6046654, 3.0650783], [101.605055, 3.0650936]]}}, {"type": "Feature", "properties": {"osm_way_id": 1467745043, "osm_tags": {"highway": "footway", "tunnel": "building_passage"}, "length_m": 202.48, "status": "implicit_review", "status_reason": "no covered tag; possibly covered: tunnel=building_passage", "covered": "yes", "coverage_source": "boundary_inference", "coverage_confidence": "medium", "coverage_review_id": "BOUNDARY-BULK"}, "geometry": {"type": "LineString", "coordinates": [[101.605055, 3.0650936], [101.6061508, 3.065095], [101.6068594, 3.0649294]]}}, {"type": "Feature", "properties": {"osm_way_id": 1467745044, "osm_tags": {"highway": "footway", "tunnel": "building_passage"}, "length_m": 8.79, "status": "implicit_review", "status_reason": "no covered tag; possibly covered: tunnel=building_passage", "covered": "yes", "coverage_source": "boundary_inference", "coverage_confidence": "medium", "coverage_review_id": "BOUNDARY-BULK"}, "geometry": {"type": "LineString", "coordinates": [[101.6046593, 3.0651571], [101.6046654, 3.0650783]]}}, {"type": "Feature", "properties": {"osm_way_id": 1467785088, "osm_tags": {"highway": "footway", "tunnel": "building_passage"}, "length_m": 155.63, "status": "implicit_review", "status_reason": "no covered tag; possibly covered: tunnel=building_passage", "covered": "no", "coverage_source": "default_pending", "coverage_confidence": "low"}, "geometry": {"type": "LineString", "coordinates": [[101.6072667, 3.064924], [101.6086683, 3.0649206]]}}, {"type": "Feature", "properties": {"osm_way_id": 1467785089, "osm_tags": {"footway": "sidewalk", "highway": "footway"}, "length_m": 510.73, "status": "missing", "status_reason": "no covered tag and no implicit cover signal", "covered": "no", "coverage_source": "default_pending", "coverage_confidence": "low"}, "geometry": {"type": "LineString", "coordinates": [[101.6032966, 3.0689956], [101.6032989, 3.0683779], [101.6033028, 3.0677072], [101.6033069, 3.0668412], [101.6033127, 3.0657192], [101.6033133, 3.065513], [101.6033237, 3.0654334], [101.604353, 3.0655031]]}}, {"type": "Feature", "properties": {"osm_way_id": 1467785090, "osm_tags": {"crossing": "uncontrolled", "crossing:markings": "yes", "footway": "crossing", "highway": "footway"}, "length_m": 33.23, "status": "missing", "status_reason": "no covered tag and no implicit cover signal", "covered": "no", "coverage_source": "default_pending", "coverage_confidence": "low"}, "geometry": {"type": "LineString", "coordinates": [[101.604353, 3.0655031], [101.6044536, 3.0655088], [101.604572, 3.0655155], [101.6046285, 3.0655719]]}}, {"type": "Feature", "properties": {"osm_way_id": 1467785091, "osm_tags": {"highway": "footway"}, "length_m": 10.31, "status": "missing", "status_reason": "no covered tag and no implicit cover signal", "covered": "no", "coverage_source": "default_pending", "coverage_confidence": "low"}, "geometry": {"type": "LineString", "coordinates": [[101.6034697, 3.0683753], [101.6033769, 3.0683767]]}}, {"type": "Feature", "properties": {"osm_way_id": 1469997594, "osm_tags": {"highway": "steps", "incline": "down"}, "length_m": 16.18, "status": "missing", "status_reason": "no covered tag and no implicit cover signal", "covered": "no", "coverage_source": "default_pending", "coverage_confidence": "low"}, "geometry": {"type": "LineString", "coordinates": [[101.6015441, 3.0652026], [101.6016898, 3.0652026]]}}, {"type": "Feature", "properties": {"osm_way_id": 1469997595, "osm_tags": {"highway": "footway"}, "length_m": 1.78, "status": "missing", "status_reason": "no covered tag and no implicit cover signal", "covered": "no", "coverage_source": "default_pending", "coverage_confidence": "low"}, "geometry": {"type": "LineString", "coordinates": [[101.6016898, 3.0652026], [101.6016898, 3.0651866]]}}, {"type": "Feature", "properties": {"osm_way_id": 1469997596, "osm_tags": {"highway": "steps", "incline": "down"}, "length_m": 14.47, "status": "missing", "status_reason": "no covered tag and no implicit cover signal", "covered": "no", "coverage_source": "default_pending", "coverage_confidence": "low"}, "geometry": {"type": "LineString", "coordinates": [[101.6016898, 3.0651866], [101.6015595, 3.0651849]]}}, {"type": "Feature", "properties": {"osm_way_id": 1469997597, "osm_tags": {"highway": "steps", "incline": "down"}, "length_m": 18.93, "status": "missing", "status_reason": "no covered tag and no implicit cover signal", "covered": "no", "coverage_source": "default_pending", "coverage_confidence": "low"}, "geometry": {"type": "LineString", "coordinates": [[101.6016099, 3.0655276], [101.6014394, 3.0655252]]}}, {"type": "Feature", "properties": {"osm_way_id": 1469997598, "osm_tags": {"highway": "footway"}, "length_m": 3.54, "status": "missing", "status_reason": "no covered tag and no implicit cover signal", "covered": "no", "coverage_source": "default_pending", "coverage_confidence": "low"}, "geometry": {"type": "LineString", "coordinates": [[101.6014394, 3.0655252], [101.601441, 3.0654934]]}}, {"type": "Feature", "properties": {"osm_way_id": 1469997599, "osm_tags": {"highway": "steps", "incline": "down"}, "length_m": 15.04, "status": "missing", "status_reason": "no covered tag and no implicit cover signal", "covered": "no", "coverage_source": "default_pending", "coverage_confidence": "low"}, "geometry": {"type": "LineString", "coordinates": [[101.601441, 3.0654934], [101.6015764, 3.0654973]]}}, {"type": "Feature", "properties": {"osm_way_id": 1469997600, "osm_tags": {"highway": "footway"}, "length_m": 5.75, "status": "missing", "status_reason": "no covered tag and no implicit cover signal", "covered": "no", "coverage_source": "default_pending", "coverage_confidence": "low"}, "geometry": {"type": "LineString", "coordinates": [[101.6015764, 3.0654973], [101.6015779, 3.0654456]]}}, {"type": "Feature", "properties": {"osm_way_id": 1469997601, "osm_tags": {"footway": "sidewalk", "highway": "footway"}, "length_m": 242.99, "status": "missing", "status_reason": "no covered tag and no implicit cover signal", "covered": "no", "coverage_source": "default_pending", "coverage_confidence": "low"}, "geometry": {"type": "LineString", "coordinates": [[101.6011283, 3.065429], [101.6015779, 3.0654456], [101.6017474, 3.0654574], [101.6023684, 3.0654692], [101.6025172, 3.0654808], [101.6032322, 3.0655244], [101.6033133, 3.065513]]}}, {"type": "Feature", "properties": {"osm_way_id": 1469997607, "osm_tags": {"bridge": "yes", "highway": "footway", "layer": "1"}, "length_m": 51.04, "status": "implicit_review", "status_reason": "no covered tag; possibly covered: layer=1, bridge=yes", "covered": "no", "coverage_source": "default_pending", "coverage_confidence": "low"}, "geometry": {"type": "LineString", "coordinates": [[101.6094802, 3.0640943], [101.6091655, 3.0644289]]}}, {"type": "Feature", "properties": {"osm_way_id": 1469997608, "osm_tags": {"bridge": "yes", "highway": "footway", "layer": "1"}, "length_m": 49.28, "status": "implicit_review", "status_reason": "no covered tag; possibly covered: layer=1, bridge=yes", "covered": "no", "coverage_source": "default_pending", "coverage_confidence": "low"}, "geometry": {"type": "LineString", "coordinates": [[101.6086624, 3.0652054], [101.6086402, 3.065615], [101.6086382, 3.0656479]]}}, {"type": "Feature", "properties": {"osm_way_id": 1481677600, "osm_tags": {"bridge": "yes", "highway": "footway", "layer": "1"}, "length_m": 39.57, "status": "implicit_review", "status_reason": "no covered tag; possibly covered: layer=1, bridge=yes", "covered": "no", "coverage_source": "default_pending", "coverage_confidence": "low"}, "geometry": {"type": "LineString", "coordinates": [[101.6065753, 3.0659998], [101.6069313, 3.0660166]]}}, {"type": "Feature", "properties": {"osm_way_id": 1511509679, "osm_tags": {"highway": "footway"}, "length_m": 30.2, "status": "missing", "status_reason": "no covered tag and no implicit cover signal", "covered": "no", "coverage_source": "default_pending", "coverage_confidence": "low"}, "geometry": {"type": "LineString", "coordinates": [[101.6047965, 3.0638748], [101.6049632, 3.0640894]]}}]}